{"type":"Topology","arcs":[[[807,1241],[-16,-40],[-104,-64],[-25,-78]],[[662,1059],[-78,-31],[41,-71],[-57,-51]],[[568,906],[-41,20],[-84,-15],[-73,-40],[-62,17],[-73,-15],[-50,-55]],[[185,818],[-34,59],[-66,16],[-47,71],[0,62],[-38,26],[6,54],[85,17],[19,31],[116,54],[22,57],[-28,89],[81,35],[29,80],[87,-9],[0,53],[48,51],[125,-73],[25,-55],[-6,-69],[94,-13],[66,-33],[38,-80]],[[568,906],[-3,-104],[38,-44],[169,-67],[82,36]],[[854,727],[40,-56],[10,-108]],[[904,563],[-35,-58]],[[869,505],[-40,-20],[-48,27],[-75,-67],[-103,58],[-167,-9],[-138,109],[-113,51],[-22,73],[22,91]],[[835,1245],[129,-6],[150,-56],[85,44],[72,0],[91,62],[0,71],[60,-17],[72,35],[31,42],[113,47],[-44,40],[-103,-5],[41,98],[87,26],[82,151]],[[1701,1777],[-9,-40],[62,-62],[85,16],[25,-32],[-62,-126],[-66,-57],[28,-58]],[[1764,1418],[-47,-27],[15,-73],[48,-44]],[[1780,1274],[-157,-104]],[[1623,1170],[-88,35],[-104,-29],[6,-35]],[[1437,1141],[-106,-69]],[[1331,1072],[-41,-11],[-44,-73],[-38,9]],[[1208,997],[-119,-22]],[[1089,975],[-47,84],[-72,-9],[-35,42],[-3,62],[-56,-4],[-41,95]],[[662,1059],[138,-51],[104,42],[122,-88],[13,-65],[-35,-53],[-6,-66]],[[998,778],[-38,-45],[-106,38],[0,-44]],[[998,778],[85,4],[47,-35]],[[1130,747],[110,-36]],[[1240,711],[-22,-68],[-94,-67],[37,-51]],[[1161,525],[-37,-40]],[[1124,485],[-54,29],[-69,-113],[-41,91],[-56,71]],[[1701,1777],[79,11],[87,-40],[60,-159],[60,-9],[56,-89],[132,29],[-66,-162],[-66,-9],[10,-71]],[[2053,1278],[-289,140]],[[807,1241],[28,4]],[[1089,975],[60,-100]],[[1149,875],[0,-2]],[[1149,873],[47,84]],[[1196,957],[50,-38],[-6,-53],[-66,-48],[-44,-71]],[[1124,485],[-29,-150]],[[1095,335],[38,-78]],[[1133,257],[-56,-33],[-85,-18],[-54,-35],[-22,79],[-62,54],[3,57],[31,31],[-19,113]],[[1095,335],[120,19],[59,45]],[[1274,399],[60,15],[31,-79]],[[1365,335],[-22,-87],[-59,-82]],[[1284,166],[-85,11],[-25,65],[-41,15]],[[1265,523],[0,33]],[[1265,556],[56,51],[110,-55]],[[1431,552],[-9,-85],[9,-97]],[[1431,370],[-66,-35]],[[1274,399],[-9,124]],[[1196,957],[12,40]],[[1331,1072],[-22,-71],[-3,-170]],[[1306,831],[22,-67]],[[1328,764],[-44,-17],[-7,-60]],[[1277,687],[-37,24]],[[1431,370],[72,-27]],[[1503,343],[44,-68]],[[1547,275],[-22,-36],[-78,-15]],[[1447,224],[-19,-18]],[[1428,206],[19,-2]],[[1447,204],[-50,-29],[-79,-11],[-3,-55]],[[1315,109],[-22,-7]],[[1293,102],[-9,64]],[[1420,205],[-2,2],[1,-5],[2,1],[-1,2]],[[2053,1278],[-7,-26],[-106,-80],[-54,16],[-34,-40]],[[1852,1148],[-35,110],[-37,16]],[[1623,1170],[22,-69]],[[1645,1101],[-66,-38]],[[1579,1063],[-22,51]],[[1557,1114],[-29,43],[-31,-25],[38,-49]],[[1535,1083],[28,-48]],[[1563,1035],[13,-16]],[[1576,1019],[-41,-24],[-47,-84]],[[1488,911],[-63,8]],[[1425,919],[-6,111],[34,49],[-16,62]],[[1550,1108],[-12,-20]],[[1538,1088],[12,20]],[[1328,764],[47,-46],[110,-47]],[[1485,671],[25,-79]],[[1510,592],[-79,-40]],[[1265,556],[-28,64],[40,67]],[[1161,525],[69,29],[35,-31]],[[1576,1019],[166,-42],[-116,-124]],[[1626,853],[-35,-31],[-72,11]],[[1519,833],[-6,-2]],[[1513,831],[-50,24],[25,56]],[[1510,592],[75,-23]],[[1585,569],[9,-55]],[[1594,514],[-50,-60],[-41,-111]],[[1306,831],[84,31],[35,57]],[[1513,831],[-35,-100],[7,-60]],[[1852,1148],[-91,-93],[-116,46]],[[1519,833],[63,-44],[9,-91],[44,-42]],[[1635,656],[-50,-87]],[[1594,514],[16,-42],[66,-22]],[[1676,450],[-28,-82],[-101,-93]],[[1635,656],[47,-5]],[[1682,651],[38,-11]],[[1720,640],[34,-33],[-22,-64],[-56,-93]],[[1626,853],[34,-33],[25,-87],[35,-53]],[[1720,680],[-38,-29]],[[1149,873],[0,2]],[[1315,109],[-3,-80],[-31,-29],[-38,64],[50,38]],[[1717,350],[-19,-97],[-44,28],[31,69],[32,0]],[[1557,1114],[-7,-6]],[[1538,1088],[-3,-5]],[[1579,1063],[-16,-28]],[[1720,680],[0,-40]],[[1447,204],[-19,2]],[[1428,206],[19,18]],[[1447,224],[0,-20]]],"transform":{"scale":[0.02800377011494253,0.019834340044742726],"translate":[73.8281,18.1055]},"objects":{"cn-provinces":{"type":"GeometryCollection","geometries":[{"arcs":[[0,1,2,3]],"type":"Polygon","properties":{"id":"65","size":"550","name":"新疆维吾尔自治区","cp":[84.9023,42.148],"childNum":18}},{"arcs":[[-3,4,5,6,7]],"type":"Polygon","properties":{"id":"54","size":"550","name":"西藏自治区","cp":[87.8695,31.6846],"childNum":7}},{"arcs":[[8,9,10,11,12,13,14,15,16]],"type":"Polygon","properties":{"id":"15","size":"450","name":"内蒙古自治区","cp":[112.5977,46.3408],"childNum":12}},{"arcs":[[-2,17,18,-5]],"type":"Polygon","properties":{"id":"63","size":"800","name":"青海省","cp":[95.2402,35.4199],"childNum":8}},{"arcs":[[19,20,21,22,23,-6,-19]],"type":"Polygon","properties":{"id":"51","size":"900","name":"四川省","cp":[101.9199,30.1904],"childNum":21}},{"arcs":[[24,25,-10]],"type":"Polygon","properties":{"id":"23","size":"700","name":"黑龙江省","cp":[126.1445,48.7156],"childNum":13}},{"arcs":[[26,-17,27,28,29,30,-20,-18,-1]],"type":"Polygon","properties":{"id":"62","size":"690","name":"甘肃省","cp":[99.7129,38.166],"childNum":14}},{"arcs":[[-7,-24,31,32,33]],"type":"Polygon","properties":{"id":"53","size":"1200","name":"云南省","cp":[101.0652,25.1807],"childNum":16}},{"arcs":[[34,35,36,37,-33]],"type":"Polygon","properties":{"id":"45","size":"1450","name":"广西壮族自治区","cp":[107.7813,23.6426],"childNum":14}},{"arcs":[[38,39,40,41,-36,42]],"type":"Polygon","properties":{"id":"43","size":"1700","name":"湖南省","cp":[111.5332,27.3779],"childNum":14}},{"arcs":[[-31,43,-15,44,45,46,47,-21]],"type":"Polygon","properties":{"id":"61","size":"1150","name":"陕西省","cp":[109.5996,35.7396],"childNum":10}},{"arcs":[[-37,-42,48,49,50,51,52,53,54,55],[56]],"type":"Polygon","properties":{"id":"44","size":"1600","name":"广东省","cp":[113.4668,22.8076],"childNum":21}},{"arcs":[[-26,57,58,-11]],"type":"Polygon","properties":{"id":"22","size":"1120","name":"吉林省","cp":[125.7746,43.5938],"childNum":9}},{"arcs":[[-13,59,60,61,62,63,64,65,66,67]],"type":"Polygon","properties":{"id":"13","size":"1300","name":"河北省","cp":[115.4004,39.4688],"childNum":11}},{"arcs":[[-47,70,71,72,-40,73]],"type":"Polygon","properties":{"id":"42","size":"1500","name":"湖北省","cp":[112.2363,31.1572],"childNum":17}},{"arcs":[[-23,74,-43,-35,-32]],"type":"Polygon","properties":{"id":"52","size":"2000","name":"贵州省","cp":[106.6113,26.9385],"childNum":9}},{"arcs":[[-66,75,76,77,78]],"type":"Polygon","properties":{"id":"37","size":"1500","name":"山东省","cp":[118.7402,36.4307],"childNum":17}},{"arcs":[[-73,79,80,81,-49,-41]],"type":"Polygon","properties":{"id":"36","size":"1700","name":"江西省","cp":[116.0156,27.29],"childNum":11}},{"arcs":[[82,-67,-79,83,-71,-46]],"type":"Polygon","properties":{"id":"41","size":"1700","name":"河南省","cp":[113.0668,33.8818],"childNum":17}},{"arcs":[[-12,-59,84,-60]],"type":"Polygon","properties":{"id":"21","size":"1500","name":"辽宁省","cp":[122.0438,41.0889],"childNum":14}},{"arcs":[[-14,-68,-83,-45]],"type":"Polygon","properties":{"id":"14","size":"1450","name":"山西省","cp":[112.4121,37.6611],"childNum":11}},{"arcs":[[-78,85,86,-80,-72,-84]],"type":"Polygon","properties":{"id":"34","size":"1700","name":"安徽省","cp":[117.2461,32.0361],"childNum":17}},{"arcs":[[87,88,-50,-82]],"type":"Polygon","properties":{"id":"35","size":"2000","name":"福建省","cp":[118.3008,25.9277],"childNum":9}},{"arcs":[[-87,89,90,91,-88,-81]],"type":"Polygon","properties":{"id":"33","size":"2100","name":"浙江省","cp":[120.498,29.0918],"childNum":11}},{"arcs":[[-77,92,93,-90,-86]],"type":"Polygon","properties":{"id":"32","size":"1950","name":"江苏省","cp":[118.8586,32.915],"childNum":13}},{"arcs":[[-48,-74,-39,-75,-22]],"type":"Polygon","properties":{"id":"50","size":"2380","name":"重庆市","cp":[107.7539,30.1904],"childNum":40}},{"arcs":[[-16,-44,-30,94,-28]],"type":"Polygon","properties":{"id":"64","size":"2100","name":"宁夏回族自治区","cp":[105.9961,37.3096],"childNum":5}},{"arcs":[[-55,95]],"type":"Polygon","properties":{"id":"46","size":"4500","name":"海南省","cp":[109.9512,19.2041],"childNum":18}},{"arcs":[[96]],"type":"Polygon","properties":{"id":"71","size":"3000","name":"台湾省","cp":[120.0254,23.5986],"childNum":1}},{"arcs":[[97,-70,98,-63]],"type":"Polygon","properties":{"id":"11","size":"5000","name":"北京市","cp":[116.4551,40.2539],"childNum":19}},{"arcs":[[-99,-69,-98,-62,99,-64]],"type":"Polygon","properties":{"id":"12","size":"5000","name":"天津市","cp":[117.4219,39.4189],"childNum":18}},{"arcs":[[-94,100,-91]],"type":"Polygon","properties":{"id":"31","size":"7500","name":"上海市","cp":[121.4648,31.2891],"childNum":19}},{"arcs":[[101,102,103]],"type":"Polygon","properties":{"id":"81","size":"18000","name":"香港特别行政区","cp":[114.1178,22.3242],"childNum":1}},{"arcs":[[-57]],"type":"Polygon","properties":{"id":"82","size":"27","name":"澳门特别行政区","cp":[111.5547,22.1484],"childNum":1}}]}}}