{"type":"Topology","arcs":[[[9901,2361],[175,-78],[265,-150],[184,-16],[91,-42],[0,-449],[0,-513],[-34,-105],[34,-44],[0,-581],[-90,78],[-28,52],[-135,134],[-130,-21],[-28,28],[-68,-47],[-2,94],[40,95],[-45,45],[32,31],[40,11],[32,-9],[8,32],[-10,18],[-24,8],[-3,8],[-19,6],[-44,33],[-123,124],[-37,128],[-5,106],[-44,-13],[-70,49],[-34,60],[24,51]],[[9853,1484],[24,75],[-5,108],[-187,2],[42,257],[94,41],[154,-1],[43,25],[-18,83],[-117,138],[18,149]],[[10051,605],[-62,-30],[-150,-1],[50,135],[85,104],[101,27],[96,-52],[-66,-146],[-54,-37]],[[10163,882],[-106,55],[74,40],[49,-31],[16,-3],[12,-12],[17,-9],[16,-17],[-23,-26],[-17,18],[-10,-14],[-28,-1]],[[5199,545],[33,-53],[48,64],[-67,59],[54,41],[73,-69],[57,26],[122,-17],[-8,-112],[-52,12],[-73,-49],[-84,11],[-153,-54],[-92,-16],[-51,19],[-10,95],[86,79],[117,-36]],[[4911,429],[-84,14],[8,118],[73,60],[80,-35],[-77,-157]],[[6256,3020],[108,-25],[45,-35],[62,29]],[[6471,2989],[59,-69],[22,-86]],[[6552,2834],[-91,47],[-400,-9]],[[6061,2872],[-12,90],[207,58]],[[5977,2014],[63,-57],[53,17],[72,73]],[[6165,2047],[68,-65],[52,-80]],[[6285,1902],[-27,-88],[74,-71],[29,-64],[58,1],[3,-65],[-74,-4],[-116,-37],[-21,-93],[-77,12],[-48,43],[33,162],[-60,20],[-99,103],[32,103],[-15,90]],[[6438,1433],[56,-58],[-86,-47],[-26,63],[41,203],[67,-38],[-47,-58],[-5,-65]],[[6285,1405],[14,115],[68,35],[22,-72],[-41,-77],[-63,-1]],[[3434,706],[100,91],[23,-68],[56,-5],[12,-100]],[[3625,624],[-191,82]],[[3160,1001],[28,-23],[145,0],[97,-23],[113,2],[57,121],[71,8],[13,-45],[140,-41]],[[3824,1000],[-26,-116],[-109,-56],[47,-113],[-95,-93]],[[3641,622],[-16,2]],[[3434,706],[-210,52],[-70,3]],[[3154,761],[-57,130],[51,18],[12,92]],[[2671,1171],[13,-58]],[[2684,1113],[-86,-36],[-2,-136]],[[2596,941],[-78,38],[-135,-8],[40,97],[41,16],[13,91],[32,49],[162,-53]],[[3824,1000],[85,-36],[125,-1],[6,-60],[36,-23],[28,-107],[87,-41],[189,22],[82,-27],[-30,-212],[-81,4],[-168,84],[-133,-42],[-79,29],[-128,20],[-61,-20],[-141,32]],[[4274,965],[57,-48],[-77,-42],[-106,1],[-97,40],[40,46],[183,3]],[[7543,2960],[98,80],[-1,62],[117,58],[4,-134],[-111,-69],[26,-38],[87,-28],[-3,-54],[-177,30],[-6,-116],[77,-184],[-50,10],[-33,78],[-47,39],[17,136],[-48,62],[9,82],[-37,93],[68,184],[75,-60],[-30,-144],[-55,-33],[20,-54]],[[6893,2249],[-125,-25],[29,101],[178,-25],[-82,-51]],[[7487,2302],[-20,63],[69,38],[104,-89],[-153,-12]],[[7668,3267],[-13,79],[79,89],[30,-44],[-38,-105],[-58,-19]],[[8259,1850],[-15,-93],[-175,91],[-20,37],[-100,7],[-50,-26],[-73,48],[-119,-60],[-59,86],[-35,-56],[-41,40],[68,83],[148,0],[76,-25],[79,47],[126,-55],[76,5],[59,-47],[55,-82]],[[7140,1892],[68,54],[114,10],[45,-21],[55,-134],[-109,-48],[-128,56],[-45,83]],[[8333,746],[19,67],[96,93],[-6,-138],[-57,-54],[-52,32]],[[7094,677],[33,88],[56,-17],[83,40],[42,-25],[-54,-73],[-128,9],[-32,-22]],[[9094,1018],[-24,-48],[-60,9],[13,149],[77,-47],[-6,-63]],[[9059,1181],[33,7],[26,27],[57,-46],[-54,-66],[-62,78]],[[9169,1232],[-11,-32],[-40,15],[-42,-29],[-13,34],[36,89],[70,-77]],[[4764,2408],[-28,-56],[19,-134],[29,-88],[96,19],[70,-24]],[[4950,2125],[-29,-22],[-15,-99],[-64,-105],[-28,-86],[-299,-147],[-15,140],[-61,47]],[[4439,1853],[58,167],[151,156],[35,67],[-18,37],[21,100],[78,28]],[[4894,1738],[-50,-41],[-21,98],[26,99],[44,-39],[1,-117]],[[4406,3114],[-51,-69],[-33,-124]],[[4322,2921],[-94,-103],[-3,-66],[-68,-120],[-192,-73],[-24,31],[-85,-78],[-48,-18],[-15,-59],[-49,-19],[-115,-90],[54,-97],[12,-192],[-96,-67]],[[3599,1970],[-46,42],[-52,-39],[-51,211],[-12,132],[9,77],[-28,65],[-119,70],[-31,-12],[-49,161],[24,14],[-17,113],[-36,27],[-30,131],[52,181],[46,37],[23,73],[69,-38],[41,-97],[83,-64],[20,-47],[68,-37],[125,45],[174,-6],[62,36],[22,81],[60,31],[93,3],[67,-54],[104,-40],[83,59],[53,-11]],[[5645,2526],[12,-79],[-20,-70],[111,-137],[222,-71],[173,-80],[22,-42]],[[5977,2014],[-42,57],[-142,-90],[44,-61],[14,-140],[-24,-41],[9,-244],[-27,-81],[18,-97],[-97,-7],[-53,-39],[-77,73],[38,130],[25,239],[-79,148],[-85,-35],[-22,102],[13,72],[-29,29],[85,77],[50,340],[49,80]],[[2671,1171],[58,1]],[[2729,1172],[-45,-59]],[[2729,1172],[77,34],[82,-74],[39,16],[65,-40],[46,23],[55,-62],[15,-74],[52,6]],[[3154,761],[-87,-38],[-174,42],[-66,43],[-202,23],[-35,24],[6,86]],[[9146,2017],[47,-109],[55,-32],[93,4],[99,100],[23,73],[38,14],[75,115],[51,-15],[116,64],[-32,38],[89,66],[101,26]],[[9853,1484],[-37,-60],[-44,60],[-38,-30],[-83,48],[-53,-1],[-153,81]],[[9445,1582],[48,82],[-83,0],[-23,70],[-338,135],[44,101],[53,47]],[[9415,2482],[-93,71],[104,14],[70,-88],[-81,3]],[[6356,572],[58,88],[35,-66],[-42,-71],[-107,-44],[-59,7],[-89,-40],[-172,-18],[-40,36],[-233,10],[-4,54],[106,78],[92,-2],[150,-55],[46,-32],[53,30],[173,-30],[33,55]],[[6687,329],[77,-4],[132,101],[33,-129],[-80,-110],[-85,-72],[-49,4],[-86,-52],[-79,-1],[44,90],[5,93],[88,80]],[[5675,203],[-116,21],[-59,49],[61,47],[141,-5],[33,30],[73,-94],[45,4],[86,-119],[-91,-56],[-51,12],[-122,111]],[[6758,578],[55,49],[115,10],[9,-50],[-160,-28],[-19,19]],[[4635,487],[-61,67],[-18,72],[76,35],[63,-26],[61,-61],[-121,-87]],[[1190,3405],[24,-67],[116,7],[76,-56],[23,-84],[43,-31],[49,6],[90,-73],[22,-106],[58,-56],[97,-11],[47,-66],[68,17],[74,-64],[-70,-207],[14,-65]],[[1921,2549],[-110,4],[-86,-94],[-152,62],[-37,-25]],[[1536,2496],[-229,170],[-25,133],[-61,7],[-42,49],[-23,91]],[[1156,2946],[-24,162],[76,22],[-27,86],[9,189]],[[3017,3697],[-44,102],[49,23],[38,-77],[-43,-48]],[[1473,3280],[41,-74],[-64,-10],[23,84]],[[5645,2526],[63,45],[-15,51],[30,124],[6,126],[38,68],[122,35],[43,42],[10,74],[133,-13],[36,-52],[145,-6]],[[6061,2872],[-102,-21],[-48,30],[-92,-25],[-42,-66],[-26,-116],[11,-88],[59,-88],[45,-8],[31,-96],[111,-14],[82,134],[146,-15],[23,45],[157,18],[91,34],[42,-45],[-24,-71],[-68,35],[-62,-12],[-18,-48],[-113,-119],[-96,-35],[-56,-57],[158,-278],[15,-64]],[[6483,2326],[-87,64],[26,52],[65,6],[27,-65],[-31,-57]],[[4406,3114],[77,7],[39,62],[49,152],[51,54],[2,114],[79,31],[18,36],[2,131],[26,125],[73,49],[109,-13],[180,20],[64,-54],[-1,-100],[-75,-64],[83,-163],[118,-144],[-62,-63],[26,-76],[199,-158],[45,-67],[-39,-37],[-169,27],[-72,-39],[-42,-90],[-36,-169],[9,-53],[-48,-118],[-57,-76],[-93,-57],[-35,-90],[24,-166]],[[4764,2408],[22,40],[-81,81],[-62,141],[-65,30],[-14,126],[55,19],[-49,107],[-91,-57],[-72,-8],[-24,43],[-61,-9]],[[6471,2989],[186,-20],[90,45],[52,86],[69,29],[31,68],[65,-58],[-52,-93],[-121,-155],[-50,-37],[-139,-26],[-50,6]],[[9445,1582],[-171,11],[-162,109],[-127,46],[-41,68],[-47,8],[-28,-75],[-53,-57],[-63,-8],[-34,39],[18,81],[-21,99],[-107,83],[-74,17],[28,56],[153,-28],[97,93],[136,-62],[45,75],[-43,72],[-65,-39],[-80,11],[-53,-25],[-152,4],[-62,54],[-35,107],[-71,47],[-136,4],[66,121],[-12,45],[140,27],[59,60],[76,35],[70,-9],[118,-56],[39,-38],[128,8],[15,-63],[61,-98],[-47,-83],[8,-109],[53,-123],[67,14],[8,-86]],[[8116,2694],[131,52],[76,-14],[-8,-65],[-81,-34],[-11,39],[-107,22]],[[8155,2236],[-101,-8],[27,76],[66,-2],[8,-66]],[[8213,2500],[68,18],[36,-31],[-27,-90],[-48,27],[-29,76]],[[709,3860],[13,-56],[84,-43],[74,-66],[173,-125],[60,-60],[23,-68],[54,-37]],[[1156,2946],[-81,33],[17,-107],[-116,5],[-57,-68]],[[919,2809],[-24,128],[-88,263],[-49,64],[-72,41]],[[686,3305],[-16,175],[-30,20],[-2,127],[-34,89],[105,144]],[[534,2986],[-84,116],[79,27],[106,-131],[-10,-86],[-43,-18],[-48,92]],[[2297,2225],[56,47],[27,73],[126,-2],[39,-151],[38,-79],[106,-29],[-47,-100],[-42,-4],[-104,42],[-44,168],[-110,4],[-45,31]],[[2881,2038],[8,48],[98,-12],[48,-64],[-36,-81],[-131,36],[13,73]],[[1536,2496],[-24,-115],[-53,-68],[-64,-8],[-16,-53],[35,-94]],[[1414,2158],[-62,-52]],[[1352,2106],[-46,76],[6,70],[-72,158],[-38,34],[-9,76],[-121,149],[-49,98],[-104,42]],[[943,2304],[-37,-24],[-54,35],[-64,117],[14,63],[58,19],[83,-210]],[[4439,1853],[-92,24],[-86,-22],[-130,111],[-20,-55],[-89,-55],[-53,35],[-93,-60],[-20,122],[-110,41],[-88,-40],[-59,16]],[[1989,1506],[-75,121],[-59,22],[-16,57],[-78,19],[13,108],[-25,57],[-58,18],[-98,124]],[[1593,2032],[123,23],[64,70],[134,60],[33,94],[111,2],[102,34]],[[2160,2315],[40,-82],[37,-4],[20,-87],[160,-23],[54,-136],[43,-9],[8,-67],[-38,-35],[-20,-85],[30,-35],[-31,-82]],[[2463,1670],[-95,101],[-81,-89],[-107,-29],[-63,-50],[-4,-120],[-104,-8],[-20,31]],[[1921,2549],[43,-47],[125,-31],[37,13],[34,-169]],[[1593,2032],[-47,10],[-132,116]],[[2463,1670],[18,-78],[-9,-206],[-20,-149],[-40,2],[-72,99],[-33,-94],[-87,53],[-42,-86],[-110,125],[-66,101],[-54,37]],[[1948,1474],[27,31],[7,1],[6,-1],[1,1],[0,0]],[[1948,1474],[-162,112],[-145,139],[-14,78],[-138,107],[-68,129],[-69,67]],[[686,3305],[-85,23],[-30,43],[-10,112],[-52,34],[-90,150],[-54,50],[-56,-1],[-237,253],[-68,156],[-4,56],[57,33],[104,-41],[45,-54],[105,-24],[110,16],[42,-30],[70,28],[94,-94],[82,-155]]],"transform":{"scale":[0.004314785418236624,0.0038604858623939673],"translate":[95.195138,-10.6122]},"objects":{"id-provinces":{"type":"GeometryCollection","geometries":[{"arcs":[[[0,1]],[[2]],[[3]]],"type":"MultiPolygon","properties":{"ID":1,"kode":85,"Propinsi":"IRIAN JAYA TIMUR","SUMBER":"Peta Dasar BAKOSURTANAL Skala 1 : 250.000"}},{"arcs":[[[4]],[[5]]],"type":"MultiPolygon","properties":{"ID":2,"kode":52,"Propinsi":"NUSATENGGARA BARAT","SUMBER":"Peta Dasar BAKOSURTANAL Skala 1 : 250.000"}},{"arcs":[[6,7,8,9]],"type":"Polygon","properties":{"ID":3,"kode":75,"Propinsi":"GORONTALO","SUMBER":"Peta Dasar BAKOSURTANAL Skala 1 : 250.000"}},{"arcs":[[[10,11,12]],[[13]],[[14]]],"type":"MultiPolygon","properties":{"ID":4,"kode":74,"Propinsi":"SULAWESI TENGGARA","SUMBER":"Peta Dasar BAKOSURTANAL Skala 1 : 250.000"}},{"arcs":[[15,16]],"type":"Polygon","properties":{"ID":5,"kode":34,"Propinsi":"DAERAH ISTIMEWA YOGYAKARTA","SUMBER":"Peta Dasar BAKOSURTANAL Skala 1 : 250.000"}},{"arcs":[[17,18,19,-16,20,21]],"type":"Polygon","properties":{"ID":6,"kode":3329,"Propinsi":"JAWA TENGAH","SUMBER":"Peta Dasar BAKOSURTANAL Skala 1 : 250.000"}},{"arcs":[[22,23,24]],"type":"Polygon","properties":{"ID":7,"kode":36,"Propinsi":"PROBANTEN","SUMBER":"Peta Dasar BAKOSURTANAL Skala 1 : 250.000"}},{"arcs":[[[25,-19]],[[26]]],"type":"MultiPolygon","properties":{"ID":8,"kode":35,"Propinsi":"JAWA TIMUR","SUMBER":"Peta Dasar BAKOSURTANAL Skala 1 : 250.000"}},{"arcs":[[[27]],[[28]],[[29]],[[30]]],"type":"MultiPolygon","properties":{"ID":9,"kode":81,"Propinsi":"MALUKU UTARA","SUMBER":"Peta Dasar BAKOSURTANAL Skala 1 : 250.000"}},{"arcs":[[[31]],[[32]],[[33]],[[34]],[[35]],[[36]],[[37]]],"type":"MultiPolygon","properties":{"ID":10,"kode":82,"Propinsi":"MALUKU","SUMBER":"Peta Dasar BAKOSURTANAL Skala 1 : 250.000"}},{"arcs":[[[38,39,40]],[[41]]],"type":"MultiPolygon","properties":{"ID":11,"kode":63,"Propinsi":"KALIMANTAN SELATAN","SUMBER":"Peta Dasar BAKOSURTANAL Skala 1 : 250.000"}},{"arcs":[[42,43,44]],"type":"Polygon","properties":{"ID":12,"kode":0,"Propinsi":"KALIMANTAN BARAT","SUMBER":"Peta Dasar BAKOSURTANAL Skala 1 : 250.000"}},{"arcs":[[45,-11,46]],"type":"Polygon","properties":{"ID":13,"kode":73,"Propinsi":"SULAWESI SELATAN","SUMBER":"Peta Dasar BAKOSURTANAL Skala 1 : 250.000"}},{"arcs":[[47,48,-23]],"type":"Polygon","properties":{"ID":14,"kode":31,"Propinsi":"DKI JAKARTA","SUMBER":"Peta Dasar BAKOSURTANAL Skala 1 : 250.000"}},{"arcs":[[-24,-49,49,-22,50]],"type":"Polygon","properties":{"ID":15,"kode":32,"Propinsi":"JAWA BARAT","SUMBER":"Peta Dasar BAKOSURTANAL Skala 1 : 250.000"}},{"arcs":[[[51,-2,52,53]],[[54]]],"type":"MultiPolygon","properties":{"ID":16,"kode":84,"Propinsi":"IRIAN JAYA TENGAH","SUMBER":"Peta Dasar BAKOSURTANAL Skala 1 : 250.000"}},{"arcs":[[[55]],[[56]],[[57]],[[58]]],"type":"MultiPolygon","properties":{"ID":17,"kode":53,"Propinsi":"NUSA TENGGARA TIMUR","SUMBER":"Peta Dasar BAKOSURTANAL Skala 1 : 250.000"}},{"arcs":[[59]],"type":"Polygon","properties":{"ID":18,"kode":51,"Propinsi":"BALI","SUMBER":"Peta Dasar BAKOSURTANAL Skala 1 : 250.000"}},{"arcs":[[[60,61,62,63]],[[64]],[[65]]],"type":"MultiPolygon","properties":{"ID":19,"kode":14,"Propinsi":"RIAU","SUMBER":"Peta Dasar BAKOSURTANAL Skala 1 : 250.000"}},{"arcs":[[[66,-10,67,-12,-46]],[[68]]],"type":"MultiPolygon","properties":{"ID":20,"kode":72,"Propinsi":"SULAWESI TENGAH","SUMBER":"Peta Dasar BAKOSURTANAL Skala 1 : 250.000"}},{"arcs":[[69,-39,70,-43]],"type":"Polygon","properties":{"ID":21,"kode":64,"Propinsi":"KALIMANTAN TIMUR","SUMBER":"Peta Dasar BAKOSURTANAL Skala 1 : 250.000"}},{"arcs":[[-8,71]],"type":"Polygon","properties":{"ID":22,"kode":71,"Propinsi":"SULAWESI UTARA","SUMBER":"Peta Dasar BAKOSURTANAL Skala 1 : 250.000"}},{"arcs":[[[-54,72]],[[73]],[[74]],[[75]]],"type":"MultiPolygon","properties":{"ID":23,"kode":83,"Propinsi":"IRIAN JAYA BARAT","SUMBER":"Peta Dasar BAKOSURTANAL Skala 1 : 250.000"}},{"arcs":[[[76,-64,77,78,79]],[[80]]],"type":"MultiPolygon","properties":{"ID":24,"kode":12,"Propinsi":"SUMATERA UTARA","SUMBER":"Peta Dasar BAKOSURTANAL Skala 1 : 250.000"}},{"arcs":[[[81]],[[82]]],"type":"MultiPolygon","properties":{"ID":25,"kode":19,"Propinsi":"BANGKA BELITUNG","SUMBER":"Peta Dasar BAKOSURTANAL Skala 1 : 250.000"}},{"arcs":[[[-78,-63,83,84,85]],[[86]]],"type":"MultiPolygon","properties":{"ID":26,"kode":13,"Propinsi":"SUMATERA BARAT","SUMBER":"Peta Dasar BAKOSURTANAL Skala 1 : 250.000"}},{"arcs":[[-44,-71,-41,87]],"type":"Polygon","properties":{"ID":27,"kode":0,"Propinsi":"KALIMANTAN TENGAH","SUMBER":"Peta Dasar BAKOSURTANAL Skala 1 : 250.000"}},{"arcs":[[88,89,90,91]],"type":"Polygon","properties":{"ID":28,"kode":16,"Propinsi":"SUMATERA SELATAN","SUMBER":"Peta Dasar BAKOSURTANAL Skala 1 : 250.000"}},{"arcs":[[-84,-62,92,-90,93]],"type":"Polygon","properties":{"ID":29,"kode":15,"Propinsi":"JAMBI","SUMBER":"Peta Dasar BAKOSURTANAL Skala 1 : 250.000"}},{"arcs":[[-92,94,95]],"type":"Polygon","properties":{"ID":30,"kode":18,"Propinsi":"LAMPUNG","SUMBER":"Peta Dasar BAKOSURTANAL Skala 1 : 250.000"}},{"arcs":[[-96,96,-85,-94,-89]],"type":"Polygon","properties":{"ID":31,"kode":17,"Propinsi":"BENGKULU","SUMBER":"Peta Dasar BAKOSURTANAL Skala 1 : 250.000"}},{"arcs":[[-80,97]],"type":"Polygon","properties":{"ID":32,"kode":11,"Propinsi":"DI. ACEH","SUMBER":"Peta Dasar BAKOSURTANAL Skala 1 : 250.000"}}]}}}