{"type":"Topology","arcs":[[[68852,972],[-43,33],[-7,56],[-58,64],[154,47],[48,5],[29,-60],[-14,-109],[-40,-23],[-69,-13]],[[60481,18979],[24,-49],[-56,-6],[-52,38],[84,17]],[[66658,15291],[-2,-14],[64,-59],[36,-52],[24,-71],[62,-48],[-58,-37],[-35,16],[-92,2],[-39,-24],[-72,18],[-59,129],[-148,86],[-93,20],[-98,8],[-49,20],[-11,26],[26,84],[18,100],[0,63],[-31,24],[-90,114],[-88,86],[-31,73],[18,22],[12,67],[77,7],[88,-18],[19,-25],[132,-12],[125,67],[105,-5],[56,-61],[81,3],[129,35],[103,16],[16,-26],[13,-177],[31,-59],[-40,-28],[-30,-92],[-36,-36],[23,-50],[-37,-80],[-67,-17],[-52,-95]],[[66564,31362],[-13,-43],[-109,-153],[-76,-230],[-35,-42],[-25,-88],[3,-60],[-28,-45],[-9,-95],[-67,-36],[-23,-43],[-14,-98],[-39,-39],[0,-76],[-49,-227],[-3,-62],[16,-46],[5,-79],[-43,-116],[-5,-34],[20,-60],[-27,-18],[-37,-76],[-12,-112],[6,-73],[-8,-117],[-35,-105],[-1,-124],[-54,-61],[-31,-117],[-64,-24],[-63,34],[-42,-5],[-123,-73],[-54,-73],[-40,-28],[-89,-124],[-48,-105],[-38,-37],[-19,-75],[-59,-46],[-31,-73],[-16,-75],[-15,-159],[2,-77],[-30,-36],[-51,-29],[-22,-35],[-45,-149],[-13,-113],[-17,-54],[-1,-61],[-36,-78],[0,-45],[-43,-50],[-8,-69],[36,-98],[62,21],[0,-65],[-34,-60],[-64,-50],[-81,-123],[-45,-16],[-60,7],[-55,-29],[-34,-55],[-61,-23],[-25,-72],[-12,-117],[9,-82],[35,-87],[-1,-85],[51,-102],[67,-88],[-33,-64],[18,-37],[73,-61],[19,-64],[-28,-113],[-75,-14],[-7,-42],[59,-26],[-13,-44],[-40,-54],[-40,-15],[-22,-68],[7,-94],[-13,-110],[45,-141],[88,-85],[104,-58],[60,1],[61,58],[51,-7],[94,25],[-1,-50],[-39,10],[-64,-42],[-64,5],[-20,-32],[-70,4],[-76,-100],[-97,-64],[-38,-1],[-87,66],[-83,-158],[-52,-42],[-64,-85],[-70,-141],[-60,64],[-45,-30],[-21,-41],[-32,14],[-110,-16],[-59,16],[-71,-55],[-94,-127],[-28,-58],[12,-40],[-59,-50],[-8,-48],[25,-23],[16,-60],[-133,-71],[-37,-50],[-14,-80],[-33,-92],[-15,-91],[11,-85],[-39,-28],[-9,-96],[-38,-52],[-37,-84],[-38,-181],[18,-47],[-50,-30],[-25,-58],[25,-49],[-35,-41],[-112,-37],[-27,-37],[4,-80],[-32,-35],[10,-39],[-73,-46],[-32,-99],[-1,-62],[19,-76],[-43,-81],[-40,-56],[-33,-86],[-99,-144],[-25,-51],[-63,-42],[-69,-101],[-79,-77],[-11,-45],[-80,-53],[-13,-55],[-50,24],[-31,-6],[-81,-55],[-13,-38],[-47,-26],[-43,-74],[-45,-138],[-22,-99],[3,-57],[-16,-33],[-40,-25],[-26,-43],[-24,-78],[-31,-48],[-8,-47],[-59,-91],[-21,-55],[-93,-52],[-50,-68],[-35,-95],[-1,-40],[-64,-37],[-17,-55],[-84,-162],[-72,-91],[-77,0],[-77,-42],[-76,-126],[-18,-74],[22,-31],[-48,-60],[-55,-6],[-62,31],[-29,33],[-104,-24],[-24,-37],[-78,10],[-115,-35],[-50,24],[-25,-12],[-27,-59],[-75,-22],[-60,-45],[-39,-63],[-49,-16],[-31,-30],[-31,-61],[-37,-19],[-13,-66],[17,-29],[-42,-163],[-38,-52],[42,-110],[48,-21],[38,-38],[-20,-30],[33,-47],[-7,-49],[32,-37],[64,-43],[-15,-55],[8,-58],[33,-61],[24,-81],[-1,-47],[21,-36],[-17,-84],[-145,-94],[-64,42],[-40,-12],[-94,-86],[-61,-147],[-9,-59],[7,-92],[-5,-64],[-32,-115],[-29,-69],[-77,-103],[-157,-92],[-110,-33],[-60,-38],[-148,-147],[-259,-229],[-76,-86],[-102,-99],[-94,-71],[-56,-33],[-110,-36],[-108,-72],[-182,-92],[-63,-3],[-93,-24],[-142,-70],[-77,-30],[-99,-64],[-89,-78],[-134,-152],[-147,-108],[-67,-38],[-281,-113],[-90,-48],[-60,-47],[-137,-160],[-49,-75],[-67,-128],[-18,-57],[-85,-220],[-93,-329],[-17,-117],[-1,-82],[-29,-224],[0,-60],[-22,-140],[-51,-66],[-60,-45],[-83,-82],[-88,-64],[-79,-44],[-130,-110],[-39,-56],[-55,-102],[-65,-141],[-45,-121],[-81,-275],[-57,-173],[-105,-250],[-76,-200],[-13,-74],[-55,-157],[-26,-151],[-77,-235],[-34,-148],[-55,-201],[-93,-206],[-65,-180],[-87,-217],[-25,-82],[-34,-60],[-52,-63],[-57,-125],[-50,-138],[-29,-121],[-31,-70],[-35,-43],[-81,-160],[-54,-194],[-38,-168],[-30,-162],[-30,-39],[-64,-49],[-34,-51],[-44,-115],[-37,-70],[-39,-124],[-35,-57],[-28,-159],[-22,-177],[-12,-205],[-4,-206],[4,-77],[1,-350],[26,-221],[33,-27],[11,-59],[-18,-23],[22,-101],[15,-192]],[[54406,7130],[-84,-19],[-15,-24],[-112,-47],[-37,-28],[-33,-69],[-39,-54],[-81,5],[-103,-39],[-14,-32],[-41,-1],[-50,-30],[-79,31],[37,45],[-14,43],[-37,37],[-54,24],[-7,45],[-65,13],[-93,44],[-94,-4],[-27,-13],[-71,35],[-39,-19],[-70,38],[-27,-3],[-42,38],[-22,57],[-114,136],[-97,43],[-50,49],[-67,42],[-319,-123],[-36,14],[20,42],[-4,81],[19,25],[-68,52],[1,46],[26,53],[9,81],[56,19],[82,-11],[38,7],[-30,144],[-93,1],[-31,24],[-63,-6],[-55,12],[-49,59],[4,41],[-24,55],[-62,21],[-99,0],[-85,71],[-16,87],[24,130],[108,20],[77,-6],[119,69],[66,85],[2,60],[-35,70],[-24,9],[-20,87],[5,141],[-73,78],[-10,54],[-59,36],[-15,51],[-79,17],[-42,32],[-68,17],[-85,-2],[-27,-19],[-59,-2],[-37,32],[-41,65],[-13,89],[3,49],[-33,23],[-58,-16],[-59,18],[-57,-1],[-112,79],[-77,64],[27,57],[68,38],[19,45],[-9,128],[38,72],[34,35],[52,20],[34,39],[-86,79],[0,25],[41,63],[69,31],[-43,99],[107,67],[51,14],[27,32],[77,-3],[46,-35],[52,1],[36,49],[100,-1],[62,42],[69,68],[4,24],[59,36],[-31,47],[-24,108],[-42,59],[-53,130],[-50,69],[-60,46],[-33,68],[29,122],[-16,21],[-78,28],[-120,21],[-56,27],[-103,89],[-62,-27],[-72,26],[2,114],[50,104],[7,68],[-66,142],[132,51],[24,131],[66,22],[35,34],[9,89],[-31,110],[-75,95],[-24,54],[-78,50],[-18,153],[-34,61],[6,75],[-36,93],[1,93],[-42,94],[-48,45],[-38,55],[-86,163],[-8,45],[18,97],[-5,96],[37,114],[131,48],[16,21],[10,113],[-6,35],[-47,96],[-18,112],[58,81],[77,77],[47,94],[-14,58],[-5,93],[-18,45],[43,120],[60,115],[58,51],[14,95],[34,21],[16,44],[72,54],[22,49],[69,77],[34,75],[69,93],[52,40],[115,168],[19,46],[-2,185],[54,86],[51,50],[-1,35],[-43,74],[4,56],[-34,58],[-21,68],[45,7],[63,-37],[61,-13],[55,-36],[144,-3],[65,5],[26,-16],[36,71],[111,-1],[47,-21],[-2,75],[30,25],[116,3],[36,32],[144,-18],[39,11],[30,40],[-6,55],[32,43],[15,58],[55,16],[-14,41],[49,34],[78,119],[89,-1],[34,12],[82,-78],[57,61],[114,4],[47,-20],[61,22],[66,3],[62,-20],[102,23],[71,104],[19,88],[66,58],[18,66],[4,62],[45,39],[16,86],[-31,38],[27,90],[-26,75],[30,79],[-24,73],[7,65],[-54,20],[23,61],[64,30],[68,17],[23,56],[47,47],[13,36],[-12,97],[18,71],[-48,92],[29,92],[1,145],[-48,92],[-30,4],[-67,72],[-34,6],[-66,63],[-210,57],[-73,-28],[-57,47],[-51,-12],[-67,44],[-34,58],[-19,67],[-30,48],[-58,24],[60,109],[16,83],[-27,75],[12,70]],[[53764,19299],[24,86],[44,53],[-26,67],[52,68],[-5,34],[-145,63],[-48,53],[97,61],[26,56],[-14,57],[-72,74],[-30,44],[-90,11],[-73,-12],[-101,36],[-99,26],[-38,24],[-27,54],[-8,89],[-61,65],[-44,116],[1,40],[-50,30],[-44,50],[25,102],[70,64],[-34,145],[-43,22],[-52,155],[-33,36],[-70,109],[-8,86],[8,121],[35,107],[21,24],[-31,62],[-43,123],[26,77],[161,110],[-22,52],[6,53],[26,13],[33,88],[130,52],[60,44],[7,127],[104,40],[37,33],[58,96],[3,82],[-20,32],[150,4],[45,58],[14,106],[14,184],[-25,72],[6,81],[69,59],[48,-4],[115,43],[88,-6],[56,10],[36,147],[-1,44],[-53,101],[-85,40],[-17,51],[-42,26],[-49,101],[73,115],[54,67],[31,147],[20,46],[93,105],[23,70],[39,46],[0,79],[35,59],[37,98],[-20,70],[25,125],[-41,50],[-48,150],[61,46],[-40,111],[3,89],[35,97],[-45,158],[-93,39],[-95,102],[62,27],[83,17],[55,39],[30,60],[61,4],[85,43],[19,223],[49,31],[2,61],[68,52],[91,40],[60,-16],[38,50],[7,56],[21,33],[-35,119],[-84,82],[-14,58],[29,38],[-13,78],[35,52],[64,32],[9,158],[-6,88],[9,74],[-10,71],[52,82],[32,115],[69,58],[99,23],[43,50],[74,-37],[42,0],[123,52],[10,56],[57,83],[105,19],[52,61],[43,74],[51,28],[89,87],[23,99],[90,48],[51,86],[54,28],[43,66],[159,22],[148,-40],[39,15],[58,63],[71,9],[94,44],[48,12],[75,58],[70,22],[42,30],[154,6],[35,31],[76,-18],[37,46],[58,25]],[[57084,28558],[74,22],[54,32],[97,10],[72,-81],[106,-33],[83,-63],[72,-19],[28,-63],[45,-29],[9,-57],[45,-87],[-29,-48],[1,-75],[34,-146],[33,-50],[34,-115],[72,-55],[16,-52],[-1,-77],[36,-60],[38,-23],[46,-60],[51,-86],[-10,-66],[33,-33],[25,20],[55,-15],[68,18],[111,0],[29,-13],[54,-73],[49,-31],[96,-23],[42,-58],[60,-14],[131,32],[87,-10],[113,9],[88,-33],[44,-77],[18,-82],[51,-96],[64,-52],[20,-114],[16,-24],[179,-58],[106,5],[44,25],[58,77],[55,47],[149,29],[20,-12],[83,49],[39,13],[70,-30],[107,-79],[96,-20],[32,-31],[18,-83],[50,-115],[77,-79],[-4,-74],[23,-49],[13,-98],[-10,-54],[86,-127],[47,-45],[-4,-42],[22,-42],[74,-56],[45,-104],[-15,-24],[-23,-116],[29,-57],[51,-25],[136,-47],[74,-36],[120,-11],[49,-56],[32,-72],[74,-88],[80,-14],[118,32],[19,39],[172,-111],[38,-103],[100,-82],[13,-46],[40,-9],[11,-43],[-5,-57],[-63,-111],[103,-38],[32,-23],[29,-63],[43,11],[84,55],[44,59],[44,-4],[30,56],[59,3],[84,55],[132,11],[40,-13],[58,34],[44,7],[131,-3],[93,-10],[71,59],[34,57],[27,75],[7,78],[-28,117],[12,51],[-36,116],[33,36],[37,75],[16,125],[53,58],[-64,57],[-33,2],[-10,54],[-93,149],[24,63],[66,23],[9,81],[33,30],[6,83],[86,11],[127,-30],[35,122],[30,30],[-6,65],[41,103],[50,42],[23,61],[12,115],[30,79],[34,24],[-25,93],[15,65],[70,16],[33,48],[36,-3],[64,65],[-43,49],[-2,61],[-33,56],[107,147],[-2,38],[38,37],[38,85],[-46,55],[2,72],[43,19],[42,82],[48,11],[20,42],[71,38],[24,95],[52,48],[76,11],[-5,31],[22,71],[-7,58],[-29,91],[9,112],[-16,32],[13,45],[-16,94],[30,47],[-3,53],[53,72],[36,28],[29,48],[87,56],[12,82],[29,11],[6,109],[59,25],[86,-3],[51,31],[-7,74],[14,9],[38,136],[34,66],[56,53],[71,130],[79,25],[50,37],[59,85],[59,38],[9,99],[-100,11],[-103,68],[-53,20],[-54,-7],[-63,56],[11,26],[-29,112],[2,43],[-37,76],[-33,111],[5,35],[112,106],[93,131],[70,152],[23,22],[71,136],[-2,37],[34,26],[-10,49],[88,92],[28,40],[72,70],[78,41],[12,30],[106,8],[48,14],[29,68],[35,25],[5,53],[32,42],[105,0],[59,-40],[46,22],[110,-15],[8,-41],[101,7],[70,18],[56,-2],[33,-57],[58,-64],[56,-79],[40,-13],[48,19],[44,51],[75,32],[69,4],[35,-14]],[[68275,3697],[-59,10],[22,57],[82,-62],[-45,-5]],[[66841,3517],[-38,79],[-69,52],[-31,43],[-60,49],[7,58],[24,23],[89,38],[23,-29],[123,-73],[95,8],[36,-7],[137,34],[62,-20],[26,-57],[32,45],[88,22],[78,-10],[43,25],[154,11],[70,-6],[76,11],[59,-60],[166,92],[55,-61],[7,-50],[-25,-65],[-34,-37],[13,-160],[83,-84],[23,-40],[-76,-10],[-15,-37],[-48,-13],[-15,-34],[-54,-40],[2,-58],[60,-139],[60,-95],[105,-93],[168,-94],[140,-47],[114,-73],[26,-2],[69,-86],[-6,-63],[-51,-57],[-52,-121],[-14,-90],[-26,-36],[-112,-38],[-34,1],[-64,38],[-30,43],[-44,-1],[-53,-29],[-128,-9],[-18,120],[-64,58],[-21,54],[-46,28],[-12,38],[-85,73],[-134,78],[-63,28],[-43,-4],[-140,-35],[-35,1],[-73,40],[-57,79],[-78,62],[-32,69],[-38,38],[-78,17],[-1,23],[-58,50],[-41,77],[-73,6],[-59,-22],[-5,45],[49,64],[-48,85],[-3,76],[10,88],[39,28],[-27,88]],[[76062,59962],[-65,-43],[-41,35],[-53,10],[-99,-24],[-133,14],[-73,32],[-58,106],[116,-2],[34,87],[50,54],[77,3],[89,-27],[72,-80],[-2,-50],[30,-41],[57,-13],[-1,-61]],[[72197,49304],[-65,-29],[-97,5],[-131,18],[-295,177],[-93,13],[-114,-5],[-132,54],[-88,-9],[-202,28],[-162,54],[-115,60],[-45,34],[-83,16],[-101,-27],[-28,31],[-6,76],[-18,31],[-44,8],[-100,-50],[-61,-17],[-48,48],[11,56],[-24,25],[-57,-20],[-45,35],[-27,60],[-52,34],[-13,72],[-23,12],[-43,-42],[-52,33],[-85,-1],[9,58],[-59,84],[-61,-39],[44,-60],[14,-78],[-43,-29],[-51,52],[-46,29],[-40,57],[-35,27],[6,31],[-63,79],[-51,25],[-6,46],[-67,-12],[-13,30],[26,45],[-18,17],[-87,-24],[-103,-60],[-25,-65],[65,-27],[-43,-44],[16,-61],[84,-41],[18,-66],[-9,-32],[161,-27],[22,-54],[-24,-30],[-58,0],[-5,-46],[28,-47],[-4,-106],[-84,-21],[-40,53],[27,45],[-37,37],[-68,-17],[-48,116],[-38,2],[-39,-92],[-3,-79],[44,-44],[-70,-28],[-42,45],[-45,8],[-62,-10],[-27,-61],[0,-47],[-46,-23],[-77,47],[-21,43],[-46,3],[-29,-41],[18,-70],[45,-57],[48,-36],[3,-67],[69,-44],[11,-59],[34,-46],[-32,-55],[-80,87],[-96,37],[-58,1],[-90,-53],[-22,35],[-128,47],[-64,4],[-41,28],[-69,-2],[-32,-23],[-52,-3],[-61,26],[-57,59],[-74,14],[-41,62],[-24,92],[-119,78],[-49,44],[-84,28],[-96,-38],[-71,28],[-66,-1],[-34,25],[-54,7],[-65,74],[-91,5],[-63,-35],[-44,16],[-31,-19],[-78,5],[-46,43],[-69,-5],[-122,-76],[-127,62],[-32,42],[-63,36],[-38,51],[-89,9],[-45,58],[-77,-11],[-41,28],[-162,57],[-77,49],[-165,134],[-43,19]],[[65656,50342],[-64,133],[-16,69],[-75,-10],[-30,-20],[-44,100],[-58,97],[-85,8],[-81,-4],[-78,-32],[-78,-13],[-43,-34],[-132,11],[-106,-46],[-81,7],[-67,34],[-47,-35],[-48,2],[-66,-60],[-55,3],[-43,-107],[-135,-64],[-67,27],[-89,1],[-84,82],[-1,47],[-44,93],[51,56],[-18,61],[-81,85],[-46,4],[-69,26],[-76,51],[-64,-19],[-33,12],[-139,4],[-109,-59],[-27,45],[-81,69],[-19,47],[-95,11],[-31,60],[-18,121],[29,44],[26,169],[-8,57],[26,133],[-19,70],[2,70],[-53,43],[-58,73],[-40,26],[-56,8]],[[62933,51898],[58,131],[48,69],[39,110],[56,75],[57,39],[11,38],[122,62],[-9,87],[42,41],[48,23],[26,46],[29,103],[56,42],[53,13],[55,-10],[39,23],[91,17],[88,84],[33,78],[39,34],[124,49],[26,76],[15,153],[52,10],[69,-11],[86,13],[42,93],[-2,48],[48,4],[34,51],[22,65],[59,34],[85,4],[81,92],[-56,64],[-13,87],[-31,63],[39,151],[-12,51],[-52,64],[-11,68],[56,73],[60,37],[11,56],[53,94],[76,21],[29,33],[62,29],[1,33],[-39,97],[-102,151],[-43,101]],[[64683,54957],[75,112],[46,45],[60,24],[29,57],[93,-47],[131,40],[69,65],[56,168],[39,22],[20,65],[42,60],[-15,53],[21,57],[92,161],[81,37],[19,27],[-6,105],[67,50],[61,107],[-51,43],[-27,86],[42,102],[86,42],[28,78],[91,104],[30,-12],[114,-5],[51,-12],[62,26],[152,13]],[[66241,56630],[104,3],[40,26],[111,-40],[81,40],[31,41],[93,43],[50,3],[44,57],[94,43],[60,-22],[184,0],[64,45],[3,62],[37,-16],[87,14],[62,-3],[26,39],[1,80],[24,17],[-21,97],[57,50],[53,72],[68,11],[76,-12],[80,54],[31,49],[45,5],[80,35],[112,-23],[61,48],[31,-65],[49,-13],[22,18],[34,78],[7,123],[37,32],[81,-36],[74,-11],[74,74],[137,79],[10,27],[-75,7],[13,59],[-12,50],[22,92],[-9,36],[-61,49],[13,53],[43,12],[29,36],[-34,41],[-78,16],[-33,84],[37,74],[-6,38],[60,86],[58,45],[-12,52],[37,60],[-63,131],[-25,69],[6,101],[110,9],[87,35],[55,-4],[75,92],[73,-11],[82,12],[65,-25],[108,59],[4,25],[-24,102],[26,34],[5,59],[-13,46],[65,-10],[32,20],[136,8],[29,24],[69,-3],[39,-23],[38,10],[30,84],[67,-20],[52,-34],[143,-3],[58,31],[37,37],[78,49],[46,0],[51,-49],[67,-8],[43,26],[33,43],[53,-11],[63,11],[39,-27],[22,25],[-6,43],[23,41],[-50,70],[25,26],[68,22],[83,60],[7,72],[49,37],[54,-24],[37,23],[110,104],[107,24],[29,54],[63,25],[64,87],[64,17],[41,49],[68,44],[61,12],[97,-12],[76,-58],[74,8],[42,41],[106,0],[26,31],[138,10],[9,66],[48,-5],[80,77],[28,45],[42,-20],[84,5],[-5,34],[43,64],[119,87],[41,5],[-18,63],[-42,35],[-12,209],[84,28],[-4,29],[90,25],[59,54],[-19,76],[65,-2],[23,27],[170,2],[29,27],[88,23],[23,59],[136,-78],[82,37],[64,15],[120,-9],[63,41],[74,70],[14,30],[120,108],[16,46],[132,91],[31,29],[4,53],[-95,52],[-30,111],[-25,44],[-79,27],[-55,61],[-12,85],[30,32],[21,66],[-6,65],[43,54],[74,67],[62,17],[47,-32],[36,41],[91,36],[44,6],[57,-33],[37,3],[124,-28],[88,13],[125,54],[74,2],[54,-20],[19,31],[47,8],[83,38],[24,0],[46,47],[20,52],[50,52],[54,-19],[28,43],[66,-17],[17,45],[34,28],[74,23],[58,-15],[31,19],[39,-22],[34,16],[83,6],[46,28],[51,-3],[38,51],[52,-5],[11,27],[46,0],[73,72],[83,-26],[59,33],[88,0],[56,-21],[39,23],[60,-17],[61,-92]],[[76100,62938],[-33,-18],[-56,20],[-78,-17],[-113,-55],[-40,2],[-121,-57],[-72,-68],[-89,4],[-115,-43],[-86,-48],[-78,-99],[-17,-70],[-30,-51],[-33,-22],[17,-53],[-65,-62],[-72,-24],[-36,2],[-61,-64],[-55,-23],[-29,-53],[8,-41],[-66,-40],[-80,22],[-61,-14],[-23,-31],[-69,-32],[-54,-69],[-23,-53],[37,-65],[-14,-60],[-50,-33],[12,-36],[-8,-90],[-100,-70],[-41,-60],[-50,-36],[-65,-75],[-122,-50],[-31,-31],[-33,-82],[-100,-81],[-112,-46],[-68,-128],[-51,-38],[-98,-135],[-39,-87],[60,-23],[-30,-43],[-67,-18],[-44,32],[-60,-129],[24,-14],[42,92],[25,-24],[-66,-154],[-69,-148],[-68,-217],[-59,-233],[-34,-177],[-29,-182],[-13,-120],[-30,-160],[-20,-236],[4,-63],[-9,-138],[16,-174],[-1,-60],[15,-142],[30,-182],[31,-124],[70,-194],[104,-213],[69,-94],[46,-91],[-17,-73],[20,-63],[-10,-51],[26,-517],[10,-105],[31,-178],[48,-204],[31,-109],[98,-273],[58,-112],[19,-55],[107,-203],[112,-138],[46,-45],[85,-23],[83,0],[55,-65],[96,-4],[41,-43],[35,-77],[-51,-15],[-92,8],[40,46],[-37,27],[-74,-38],[-104,40],[-2,43],[-34,11],[-154,-29],[-26,-60],[-2,-78],[45,12],[-2,-52],[46,-36],[64,67],[52,9],[-7,-94],[-64,-21],[7,-105],[74,10],[6,-25],[-76,-10],[5,-27],[89,9],[-8,72],[64,-36],[-15,-30],[69,-34],[27,-32],[-24,-74],[-90,1],[-29,-51],[-3,-97],[19,-38],[16,-103],[-11,-65],[13,-161],[23,-92],[34,-48],[-34,-62],[-1,-65],[26,-90],[-26,-63],[-43,-25],[-9,-39],[-78,-15],[-80,10],[-66,-34],[-42,-41],[-157,-55],[-68,-3],[-75,-31],[-41,-70],[-32,-170],[5,-159],[28,-51],[41,-17],[95,-16],[79,-43],[-17,-54],[12,-29],[1,-91],[21,-42],[109,-12],[41,9],[54,-42],[7,-27],[-43,-24],[-48,2],[-35,31],[-59,-6],[-72,-23],[-85,-51],[-58,-6],[-68,-59],[-8,-28],[-84,-43],[-25,-45],[-170,-65],[-87,-72],[-1,-63],[30,-36],[-11,-46],[-40,-15],[-57,-67],[-12,-43],[-67,-93],[-79,-66],[-98,-65],[-58,-65],[-90,-185],[-65,-164],[-53,-186],[-27,-164],[-17,-151],[2,-68],[-29,-255],[2,-63],[-29,-40],[-50,-109],[-12,-63],[-83,-141],[-48,-136],[-20,-27],[-47,-114],[-38,-121],[-8,-55],[12,-90],[21,-75],[22,-133],[3,-96]],[[67849,67568],[68,-12],[38,-97],[11,-79],[29,-28],[71,-25],[20,-40],[42,-28],[59,12],[67,-29],[33,25],[47,-8],[18,-127],[-42,-61],[17,-29],[-36,-59],[51,-91],[-35,-65],[-89,-75],[-6,-64],[40,-29],[89,0],[91,-53],[40,16],[39,-164],[-43,-73],[79,-37],[5,-41],[32,-41],[7,-55],[54,-67],[45,-21],[70,-63],[14,-112],[56,-30],[-67,-71],[-51,5],[-20,-85],[-37,-35],[-29,-82],[-37,-58],[37,-76],[43,-22],[55,-1],[116,-34],[49,-32],[97,-24],[43,-57],[122,-87],[58,-23],[-24,-42],[20,-68],[41,-41],[10,-42],[-25,-83],[-62,-38],[-15,-103],[-58,-38],[17,-80],[-60,-39],[-48,-76],[54,-20],[63,-63],[47,-83],[-57,17],[-24,-21],[15,-39],[-57,-27],[-38,-36],[3,-49],[54,-96],[61,-71],[142,-63],[19,-33],[52,11],[28,-20],[81,-23],[37,-33],[85,-44],[126,-47],[130,6],[84,52],[104,-13],[-22,-48],[10,-28],[-24,-56],[-133,-2],[-76,24],[-75,-8],[-63,-45],[-82,56],[-43,-21],[-106,10],[-65,32],[-34,-23],[-38,-94],[-109,-51],[-59,20],[-65,2],[-24,24],[-57,-10],[-63,15],[-126,-17],[-35,-83],[-96,-3],[-22,-58],[-18,-100],[28,-52],[46,-33],[24,-38],[0,-52],[-48,-80],[19,-59],[59,-28],[-3,-49],[-40,-32],[14,-132],[-25,-25],[18,-34],[105,-53],[120,5],[156,-80],[21,-25],[-8,-47],[-52,7],[-134,-52],[-40,-36],[-69,-4],[-61,-37],[-146,8],[-27,50],[-49,12],[-48,-25],[-66,0],[-19,24],[-49,5],[-60,32],[-90,11],[-36,-56],[-162,-1],[-76,12],[-55,73],[-23,83],[-24,18],[-20,68],[-31,17],[-13,64],[18,88],[-27,38],[-73,-61],[-72,-5],[-23,21],[10,50],[-22,27],[-84,-11],[-55,19],[4,73],[-43,56],[-30,-58],[-85,-81],[-53,-20],[23,84],[47,80],[47,114],[1,126],[-39,57],[-94,38],[-80,109],[-45,45],[-111,44],[-80,7],[-77,-52],[-109,-130],[-94,-63],[-69,-10],[-85,97],[-20,82],[15,108],[-56,128],[7,64],[24,67],[53,69],[73,55],[125,59],[69,68],[44,171],[5,83],[24,79],[2,133],[-18,73],[-72,172],[-69,96],[-161,140],[-49,49],[-150,74],[-55,11],[-254,8],[-121,63],[-60,67],[-2,22],[78,143],[-33,119],[92,39],[9,74],[25,77],[67,85],[56,37],[19,38],[82,79],[0,13],[82,65],[47,68],[71,12],[122,197],[106,70],[29,34],[75,158],[51,-10],[39,-36],[82,-34],[57,31],[118,-34],[53,109],[-16,93],[79,73],[158,18],[49,63],[100,10],[41,35],[9,99],[62,65],[48,25],[41,-21],[39,39],[-22,60],[57,87],[13,44],[85,35]],[[38868,34100],[-40,80],[4,43],[40,35],[37,-6],[8,-55],[-15,-50],[-34,-47]],[[38422,33502],[-50,20],[0,37],[-40,28],[28,85],[47,59],[74,60],[25,40],[62,17],[95,-1],[73,62],[18,68],[128,18],[1,-111],[17,-23],[-38,-44],[17,-28],[-43,-34],[-18,107],[-43,32],[-57,-49],[-3,-82],[-63,-33],[-11,-40],[-52,11],[-26,-53],[-58,-8],[-55,-25],[3,-52],[-31,-61]],[[38903,33309],[-92,0],[-17,34],[23,96],[-25,162],[64,-7],[21,83],[52,-15],[29,-32],[4,-45],[38,-5],[-14,-57],[-33,-29],[-9,-56],[-32,-40],[-68,-40],[20,-35],[39,-14]],[[38206,33130],[-29,6],[-17,52],[-60,74],[-22,69],[30,57],[35,29],[77,110],[7,25],[78,-37],[9,-34],[105,-100],[-16,-32],[70,-30],[-35,-57],[-33,-8],[-110,44],[-55,-14],[-19,-58],[-15,-96]],[[37443,32482],[60,-3],[18,-59],[-8,-52],[-54,-90],[-75,-15],[-56,45],[71,13],[-17,65],[-51,65],[-19,-25],[4,-71],[-83,-78],[-88,-47],[-58,9],[-5,46],[72,88],[-1,67],[24,50],[47,41],[12,36],[-93,-4],[11,-56],[-18,-33],[2,-46],[-21,-57],[-101,-109],[-51,52],[-39,-51],[-26,16],[-66,-1],[-55,-35],[4,-38],[-52,-29],[24,-32],[-61,-43],[24,-71],[-7,-46],[17,-27],[-1,-73],[-56,-4],[-33,-28],[-99,6],[-12,68],[42,116],[-17,27],[-73,-31],[8,-18],[-62,-42],[-42,-78],[48,-44],[50,-96],[42,-29],[32,-95],[78,-92],[19,-85],[27,-25],[-61,-39],[-37,88],[-22,-14],[-42,39],[26,41],[-32,26],[-37,66],[-80,74],[-74,170],[-84,55],[-69,56],[32,51],[37,95],[29,23],[49,3],[104,87],[32,5],[73,69],[32,43],[111,55],[49,47],[76,49],[206,107],[50,42],[66,38],[127,90],[46,8],[4,31],[50,31],[65,19],[52,52],[43,11],[23,48],[58,3],[46,55],[43,8],[45,50],[58,32],[112,29],[86,-18],[47,-46],[53,-6],[56,-48],[34,-50],[-6,-67],[-28,-31],[-136,32],[-68,-8],[-18,-65],[-68,7],[-54,-33],[-31,-89],[-55,-21],[-26,24],[-50,-19],[-33,-41],[141,-26],[-20,-30],[-40,-3],[-20,29],[-71,-1],[-15,-50],[81,9],[-10,-110],[-49,9],[-56,30],[-71,-27],[-67,-7],[-23,-26],[75,-13]],[[39711,37605],[9,57],[72,92],[19,-21],[-30,-47],[-30,-13],[-40,-68]],[[39670,37484],[31,-11],[3,-42],[-72,-47],[-76,-20],[-68,-113],[-57,-122],[-10,65],[58,88],[42,92],[78,93],[71,17]],[[51051,34953],[-78,-64],[-44,-81],[61,-44],[12,-41],[85,-45],[-54,-82],[54,-77],[-6,-30],[32,-69],[-36,-151],[60,-42],[20,-47],[-12,-49],[-50,11],[-93,-14],[-83,33],[-121,-58],[-47,41],[-106,-5],[-26,23],[-3,64],[-120,-1],[-90,23],[-102,3],[-144,-30],[-122,-72],[-95,-17],[-55,52],[-16,56],[-59,54],[-34,-22],[-44,3],[-105,-31],[-64,-66],[-138,-6],[-28,48],[-45,39],[-76,-23],[12,70],[43,14],[55,61],[9,63],[-45,22],[27,68],[6,63],[-64,6],[-40,-18],[-80,-2],[-182,-52],[-106,12],[-44,-13],[-7,-39],[-83,-81],[-68,24],[-28,-4],[-67,-46],[-42,1],[-49,27],[-77,-21],[-53,0],[-47,30],[-58,14],[-74,-7],[-26,15],[-94,-56],[-77,-18],[-95,29],[-53,50],[-66,41],[-80,-4],[-26,33],[-51,4],[-25,-17],[-82,8],[-24,75],[-93,22],[-70,-4],[-100,13],[-137,8],[-81,49],[-12,30],[-56,24],[-31,60],[-101,88],[-71,41],[-40,41],[-52,83],[-53,57],[-44,28],[-16,49],[-36,29],[-26,61],[25,82],[-30,70],[-52,34],[-139,-15],[-67,-28],[-88,55],[-36,-18],[17,-72],[-46,-17],[-66,32],[-80,10],[-24,-56],[-24,-8],[-52,31],[-84,-17],[-70,1],[-46,-17],[-74,-4],[-36,-32],[-92,-28],[-23,91],[-57,-28],[-110,24],[-41,-37],[-30,-57],[-62,12],[-41,-10],[20,-46],[-16,-43],[-46,24],[-44,-29],[-38,-62],[-57,18],[-41,-26],[-56,22],[-21,37],[-7,81],[-17,6],[-67,-49],[-53,8],[-92,42],[-61,1],[-3,143],[-34,39],[-79,-41],[36,-107],[-211,-69],[1,-25],[-116,-28],[-49,-71],[-28,-69],[9,-28],[-51,-20],[-19,-37],[-186,-12],[-51,-38],[-32,7],[-12,-97],[-16,-29],[-72,-69],[-34,-52],[-66,-34],[-85,-19],[-190,-25],[-54,0],[-111,22],[-25,-23],[-6,-199],[-18,-78],[-109,-81],[-45,-21],[-109,-18],[-155,53],[-87,-6],[-23,-53],[77,-100],[7,-52],[-82,-35],[-180,33],[-90,-7],[-50,-26],[-32,-35],[0,-93],[34,-110],[-17,-26],[-67,-42],[-82,-37],[-49,-3],[-86,-59],[-36,-105],[-36,-134],[-45,-22],[-51,5],[-100,76],[-24,34],[-72,160],[-41,48],[-47,7],[-97,-13],[-93,-30],[-47,-57],[-1,-58],[41,-124],[31,-190],[30,-144],[-4,-39],[-42,-54],[-68,-55],[-89,-41],[-126,-31],[-158,-23],[-148,54],[-109,53],[-111,41],[-64,-9],[-49,40],[-75,-5],[-116,-57],[-55,11],[-83,-15],[-55,4],[-162,94],[-119,53],[-40,-29],[-131,2],[-122,48],[-69,18],[-58,34]],[[39187,33119],[11,62],[-19,55],[98,109],[-23,35],[-10,66],[-61,45],[-80,108],[-24,94],[-19,16],[16,93],[-7,138],[42,61],[23,80],[2,84],[-54,19],[9,265],[7,113],[56,52],[7,82],[-66,6],[-2,94],[9,89],[-1,95],[-49,54],[-15,65],[62,16],[1,42],[-31,11],[3,60],[28,89],[-15,14],[12,106],[17,42],[6,73],[-14,27],[41,124],[2,37],[32,54],[38,34],[21,53],[49,-8],[39,90],[-37,10],[23,72],[35,-11],[24,74],[67,103],[62,150],[37,72],[114,114],[63,96],[138,167],[89,-2],[-26,39],[-232,42],[-15,41],[79,580],[32,40],[-9,66],[100,272],[43,40],[334,2],[-1,82],[15,76],[-24,79],[21,87],[61,78],[38,32],[-16,40],[-88,-106],[-76,-119],[-58,-109],[-88,-66],[-133,-36],[-236,-2],[-101,215],[14,22],[70,26],[78,-40],[21,37],[-49,23],[37,83],[113,208],[24,55],[93,173],[24,56],[-58,8],[-11,-48],[-183,38],[-154,-131],[-5,8],[211,177],[-18,27],[-87,21],[12,22],[114,-21],[109,45],[172,117],[75,42],[37,39],[18,43],[51,16],[29,64],[150,-5],[48,-44],[46,18],[25,56],[52,63],[74,66],[58,94],[-19,52],[-59,35],[-3,32],[73,56],[63,-29],[34,79],[84,2],[36,-50],[0,-132],[41,-12],[16,42],[57,-19],[34,61],[32,19]],[[41142,39675],[138,-96],[124,-69],[445,-120],[629,-164],[168,-5],[337,46],[123,-2],[271,2],[154,19],[208,109],[260,-1],[552,-44],[164,12],[137,66],[162,-1],[124,-64],[78,-85],[152,-85],[30,-30],[122,-22],[348,-145],[159,-50],[313,-61],[75,-28],[178,-43],[208,-6],[152,-14],[123,44],[124,-5],[99,9],[124,-9],[125,-32],[44,-27],[267,-37],[188,-52],[76,-35],[127,-21],[451,7],[59,-12],[251,-21],[58,-17],[41,-45],[106,-14]],[[49216,38527],[41,-88],[113,-152],[154,-384],[8,-34],[-29,-125],[0,-162],[27,-87],[-32,-17],[-76,31],[-87,-9],[-37,22],[-30,-94],[-65,-60],[5,-79],[32,-58],[-24,-62],[5,-126],[-31,-54],[48,-101],[33,-5],[49,-42],[-45,-75],[41,-68],[26,-84],[-21,-39],[15,-108],[33,-36],[-8,-73],[-29,-46],[18,-90],[-42,-29],[-8,-71],[-55,-36],[-31,-45],[-6,-60],[-64,-83],[3,-30],[-39,-77],[23,-67],[-24,-24],[1,-94],[-68,-56],[0,-25],[-53,-74],[18,-66],[-26,-35],[24,-48],[23,-122],[43,-47],[43,8],[64,91],[103,82],[31,53],[160,-30],[11,-28],[-21,-110],[6,-39],[-20,-95],[133,-49],[63,-74],[55,17],[102,-38],[75,8],[110,28],[108,-6],[37,38],[1,73],[15,42],[107,42],[106,-6],[104,-52],[68,-5],[30,27],[76,15],[77,50],[-23,128],[55,31],[51,10],[44,-73],[67,-90],[42,-9],[21,-30],[75,-32],[13,-73],[-7,-84]],[[62260,65674],[7,-95],[-24,-51],[81,-62],[73,-7],[26,-83],[81,8],[50,30],[64,-58],[4,-67],[27,-32],[154,-6],[160,-72],[135,-9],[63,-32],[45,-56],[178,-93],[51,8],[95,-8],[58,-51],[-52,-34],[4,-24],[-103,-35],[-22,-51],[48,-25],[141,18],[14,-35],[-64,-31],[99,-35],[58,-38],[-4,-37],[198,-3],[247,22],[108,-36],[15,-28],[73,6],[49,-51],[-18,-28],[12,-46],[-24,-40],[6,-39],[60,21],[193,-66],[-17,-65],[-28,-22],[41,-38],[-68,-36],[-81,6],[34,-68],[95,-32],[39,-47],[-49,-30],[-6,-95],[49,-19],[13,-57],[154,-114],[36,-15],[-62,-50],[-66,-6],[-60,-31],[-79,10],[-48,-30],[-42,16],[-22,-90],[37,-29],[105,-48],[24,-62],[57,-77],[-29,-28],[-96,-38],[-6,-33],[-51,-47],[-65,-3],[-57,64],[-88,-33],[14,-63],[-19,-62],[43,-41],[-72,-55],[-66,-15],[-46,-42],[-79,-23],[-30,-38],[-47,-27],[-106,56],[-119,-36],[-74,0],[-35,62],[-98,-40],[-110,42],[-38,-17],[-66,12],[-61,-40],[-63,12],[-71,-38],[5,-53],[-81,-43],[7,-31],[72,48],[44,-137],[-32,-28],[21,-68],[-18,-157],[-4,-108],[42,-52],[6,-42],[-106,-18],[-190,-106],[50,-76],[50,-22],[50,-49],[-18,-65],[52,12],[178,24],[78,-25],[16,-33],[-80,-45],[-134,-2],[-62,-27],[-144,-143],[113,-96],[8,-34],[55,-17],[0,-36],[-52,-60],[-37,-18],[-7,-78],[20,-24],[117,-47],[79,73],[32,-19],[-9,-56],[-24,-54],[26,-38],[33,1],[67,33],[77,-15],[-15,-103],[56,-23],[25,-64],[6,-67],[38,-27],[62,-1],[59,-44],[18,-65],[-29,-45],[-74,-47],[-69,-11],[30,-126],[43,-48],[82,-23],[13,-37],[52,-64],[-41,-5],[-29,-57],[-89,-45],[-41,38],[-97,-33],[-34,8],[-69,-14],[-17,-27],[-2,-64],[83,-8],[47,25],[89,24],[162,-39],[61,-91],[49,-27],[75,-1],[126,-39],[54,-27],[20,-31],[99,32],[40,31],[78,34],[7,51],[65,37],[21,-5],[86,35],[78,-6],[20,-39],[58,4],[38,33],[119,-58],[24,-35],[114,-69],[-32,-60],[7,-38],[35,-43],[18,-65],[139,-4],[24,-50],[8,-58],[35,-25],[53,-75],[46,-30],[88,-28],[18,-92],[-8,-40],[21,-31],[1,-72],[-19,-50],[33,-64],[58,-34],[85,-67],[77,19],[-13,-55],[14,-47],[-54,-68],[-55,-42],[-36,-3],[-44,-35],[-39,-73],[-64,-50],[-71,-15],[-126,-103],[-43,-104],[51,-27],[-5,-45],[59,-101],[14,-69],[-12,-35],[30,-54],[7,-45],[51,-67],[-3,-57],[46,-67],[-15,-83],[80,-69],[56,-12],[10,-57],[75,-173],[73,-56],[26,-126],[130,-52],[60,-9],[88,-39],[75,-73],[39,-25],[27,13],[70,-14],[12,-49],[-34,-74],[23,-110],[23,-22],[11,-88],[69,-81],[11,-31]],[[64683,54957],[-152,-61],[-14,-22],[-69,-24],[-80,0],[-91,60],[-214,94],[-26,69],[-83,31],[-73,81],[14,52],[-10,50],[-48,39],[0,49],[-36,31],[-14,75],[62,68],[23,-2],[11,73],[37,86],[3,48],[-96,61],[-56,-5],[-13,26],[-12,90],[-25,45],[-46,18],[-22,52],[16,77],[-15,107],[30,106],[-14,23],[12,139],[-53,-19],[-50,36],[-58,-28],[-36,57],[-33,-11],[-39,-46],[-28,7],[15,72],[-21,188],[-62,84],[-123,149],[-77,60],[-54,28],[-57,9],[-36,40],[-70,7],[-44,-11],[-184,-95],[-82,42],[-6,33],[58,125],[24,128],[57,84],[25,140],[-48,126],[-29,9],[-64,62],[-41,24],[-10,63],[41,74],[13,77],[32,48],[57,52],[-2,81],[49,104],[-51,25],[-30,38],[-43,97],[-73,-3],[-83,25],[-21,65],[-106,24],[-41,31],[-167,19],[-46,52],[-69,24],[-16,71],[-59,35],[-35,-4],[-24,33],[-95,10],[-34,60],[2,34],[38,33],[13,40],[-30,75],[-44,-18],[-132,35],[-77,58],[-12,57],[22,45],[-49,96],[-45,32],[-22,-40],[-76,-42],[-129,-18],[-78,-21],[-59,-37],[-74,-29],[-13,72],[-22,15],[4,75],[-25,25],[19,62],[-50,14],[-48,-9],[-40,-29],[-67,-21],[-42,-51],[-35,10],[-60,49],[61,62],[-47,24],[-37,78],[-58,-61],[-47,59],[-89,43],[-60,43],[-117,59],[-131,47],[-63,8],[50,88],[-47,28],[-82,30],[-24,-16],[-60,38],[-90,33],[-130,96],[-15,40],[-45,-7],[31,96],[44,34],[24,121],[87,62],[-10,77],[-28,130],[-60,105],[33,0],[-2,58],[-31,51],[-82,8],[-61,20],[-95,-20],[-40,30],[-76,14],[-42,-29],[-24,-60],[-44,32],[-72,3],[-35,25],[-86,-21],[-71,16],[-107,37],[-32,0],[-103,72],[51,109],[-18,97],[-21,33],[-154,-52],[-181,-37],[-29,0],[-39,43],[-53,20],[-62,47],[-57,-9],[-74,7],[-61,23],[-61,-6],[-17,53],[-46,22],[-115,27],[-19,-16],[-75,41],[29,28],[-15,55],[-2,80],[28,55],[25,79],[-2,86],[-22,25],[-26,87],[0,136],[-59,-9],[-71,45],[-70,21],[-40,51],[-5,31],[-74,12],[-36,-16],[-45,55],[-36,1],[-52,-25],[-82,-15],[-14,21],[-64,-60],[-19,-35],[-66,18],[-59,-19],[-138,59],[-17,31],[-46,-10],[-47,38],[-61,-72],[-22,-53],[-79,17],[-109,-43],[-34,-78],[-42,20],[-52,63],[-28,8]],[[56226,62048],[119,209],[135,86],[83,91],[61,142],[75,109],[63,73],[7,41],[-16,132],[-17,13],[-15,78],[45,30],[-15,43],[58,47],[48,62],[4,31],[37,34],[57,133],[60,111],[88,88],[16,82],[96,97],[14,30],[66,34],[64,67],[60,38],[49,92],[93,96],[56,19],[52,-2],[145,51],[54,1],[147,54],[14,36],[83,47],[54,-6],[41,14],[19,51],[72,86],[65,54],[65,25],[52,42],[142,76],[78,13],[150,49],[92,60],[188,23],[82,17],[135,38],[163,24],[33,15],[169,27],[242,70],[68,15],[28,45],[144,78],[158,55],[34,41],[57,30],[89,74],[171,69],[93,47],[18,25],[72,9],[75,26],[225,39],[53,54],[169,-2],[133,105],[44,18],[78,-10],[66,8],[61,23],[145,-45],[196,-39],[129,-12]],[[44829,11834],[-1,68],[36,363],[-43,171],[-12,91],[-4,151],[34,119],[12,84],[80,202],[36,115],[42,38],[75,36],[27,102],[62,111],[35,89],[14,96],[19,58],[17,128],[36,199],[-7,173],[-31,120],[-47,61],[-98,70],[-68,137],[-19,88],[-4,112],[47,144],[-8,73],[-1,129],[18,163],[-7,179],[16,163],[21,35],[50,152],[-12,85],[61,125],[89,66],[36,65],[47,142],[4,45],[32,88],[3,44],[56,245],[6,73],[0,172],[-23,192],[-14,273],[-10,66],[1,99],[12,60],[-12,103],[38,102],[6,109],[30,114],[51,104],[29,81],[54,119],[21,147],[9,107],[38,58],[3,138],[33,53],[-8,113],[66,66],[42,63],[43,27],[60,-28],[24,20],[41,-37],[120,-3],[50,-11],[65,31],[54,-91],[69,-22],[100,6],[102,-61],[111,61],[93,-2],[69,29],[17,-18],[61,4],[76,-28],[59,-5],[74,-27],[131,11],[87,-28],[99,0],[88,75],[79,35],[81,65],[107,151],[74,70],[240,187],[188,141],[52,60],[148,125],[157,64],[60,16],[87,-26],[42,13],[115,60],[128,32],[66,37],[58,11],[90,41],[33,-29],[39,-135],[52,3],[28,48],[56,40],[25,-3],[38,-54],[2,-88],[25,-93],[-19,-71],[21,-106],[28,-32],[66,-17],[87,-4],[22,-33],[59,-12],[88,24],[42,109],[101,12],[44,23],[85,4],[32,74],[111,85],[90,95],[19,46],[59,34],[226,-6],[76,21],[89,-23],[98,-80],[69,-32],[87,-22],[104,-14],[30,-48],[42,-38],[7,-32],[62,-46],[111,-18],[29,-48],[52,-36],[63,-80],[32,-103],[7,-52],[39,-8],[107,-132],[37,-30],[20,-55],[86,-54],[75,23],[77,70],[90,5],[46,18],[4,46],[-21,111],[39,71],[149,-24],[120,76],[140,64],[7,52],[36,34],[56,3],[76,64],[75,20],[56,-13],[75,12],[90,-42],[59,-55],[34,-60],[-6,-41],[36,-53],[94,-45],[105,117],[66,-50],[23,-49],[53,-27],[-3,-54],[52,-32],[46,-82]],[[54406,7130],[9,-69],[32,-111],[13,-77],[0,-79],[-70,-55],[-33,-156],[2,-32],[36,-186],[13,-110],[-27,-63],[-45,-62],[-43,-29],[7,-105],[28,-207],[31,-68],[-9,-42],[14,-65],[-21,-107],[-34,-53],[14,-82],[26,-37],[1,-102],[-47,-108],[98,-82],[8,-52],[-50,-65],[-40,-19],[-126,-95],[13,-58],[9,-120],[19,-36],[75,-192],[22,-74],[151,-68],[9,-37],[-23,-28],[-23,-84],[11,-88],[-74,-97],[-76,-63],[-1,-119],[-10,-55],[6,-60],[31,-50],[9,-98],[-12,-42],[23,-57],[-5,-87],[13,-64],[-15,-22],[2,-112],[39,-47],[24,-107],[42,-52],[49,-97],[-93,-53],[-53,-18],[-91,-83],[-24,-4],[-16,-63],[-3,-121],[-23,-7],[-82,-72],[-89,-18],[-19,-16],[28,-107],[-34,-25],[9,-53],[-32,-54],[-57,-38],[-116,-49],[-111,-75],[-79,-21],[-61,-34],[-104,7],[-69,-28],[-32,-162],[25,-98],[-27,-91],[-4,-61],[-26,-66],[-24,-22],[-18,-138],[14,-25],[7,-91],[-11,-36],[35,-38],[6,-39],[36,-47],[-7,-23],[58,-109],[16,-64],[75,-60],[84,-136],[45,-47],[32,-71],[35,-25],[6,-94],[-16,-34],[3,-67],[51,-92],[55,-45],[-17,-35],[-94,-50],[-143,8],[-43,15],[-69,63],[-29,132],[3,112],[-39,38],[-116,12],[-61,26],[-37,40],[-37,97],[-188,166],[-28,66],[-34,12],[-56,-25],[-98,-12],[-57,19],[-65,46],[-19,79],[-36,16],[-50,-86],[-67,16],[-3,77],[-36,36],[-148,29],[-137,-10],[-69,58],[-33,61],[-95,19],[-41,28],[-88,131],[-97,0],[-76,-36],[-76,-16],[-31,-70],[-78,-44],[-56,-119],[-46,-10],[66,-210],[-52,-58],[-10,-40],[-80,-65],[-6,-128],[-109,-23],[-36,6],[-70,-15],[-37,9],[-89,69],[-78,109],[7,109],[-86,47],[-39,-27],[-35,6],[-23,114],[40,223],[10,185],[2,122],[64,142],[-3,48],[-30,118],[-62,104],[-51,14],[-40,122],[-2,59],[-40,-3],[-114,60],[-63,82],[-48,85],[-26,86],[6,20],[-49,51],[-22,75],[-39,57],[-31,127],[31,121],[60,80],[50,30],[47,71],[27,-23],[35,34],[-67,98],[10,72],[48,91],[69,14],[63,-28],[64,47],[-24,15],[22,93],[-10,102],[-73,269],[-75,43],[39,79],[131,38],[103,58],[48,-6],[35,57],[0,46],[-27,68],[12,30],[-12,70],[9,26],[-63,116],[10,43],[-76,63],[22,34],[-26,37],[11,89],[-25,17],[-39,75],[-84,47],[-5,87],[18,28],[-18,40],[-73,22],[-17,95],[52,101],[-17,58],[-52,40],[-20,91],[17,74],[-40,134],[-22,47],[-15,154],[-28,37],[-17,77],[-45,104],[-68,76],[-32,114],[8,44],[36,65],[11,60],[-20,54],[-98,148],[-48,44],[-35,74],[15,36],[-41,42],[2,39],[-54,98],[-52,68],[-144,148],[-104,99],[-139,85],[7,32],[61,26],[-11,22],[-66,-10],[-22,31],[20,102],[36,86],[-3,37],[-63,138],[-12,81],[-71,138],[-37,113],[5,50],[-13,67],[-2,110],[-42,65],[-46,50],[-41,89],[-119,133],[-110,105],[-121,108],[-104,78],[-114,96],[-48,61],[-78,158],[-31,94],[-104,123],[-62,108],[-70,73],[-84,74],[-145,107],[-230,155],[-239,154],[-71,25],[-53,52],[-178,92],[-88,37],[-103,62],[-146,61],[-103,52],[-91,106],[-59,-22],[-116,48],[-47,46],[-107,62],[-34,8],[-227,114],[-274,150],[-383,242],[-12,27],[-158,157],[-101,127],[13,90],[40,14],[-62,47],[-57,-41],[-33,71],[4,25],[-60,34],[-111,43],[-30,-2]],[[43505,8666],[-68,24],[-50,42],[7,63],[35,58],[89,61],[27,78],[53,50],[-44,107],[120,129],[80,18],[113,59],[90,-3],[58,-56],[100,-48],[17,-44],[-44,-114],[-43,-38],[-159,-73],[-49,-62],[-89,-75],[-53,-78],[-126,-84],[-64,-14]],[[48827,51882],[24,-22],[79,-15],[47,-22],[65,-110],[158,-99],[22,-86],[52,-44],[-5,-92],[47,-48],[15,-48],[47,-24],[8,-31],[191,-59],[112,-89],[75,-89],[4,-37],[69,-100],[51,-10],[48,-47],[56,-27],[-27,-61],[170,-104],[63,-84],[20,-7],[61,-149],[110,-47],[40,-36],[63,-27],[84,-2],[-3,-79],[211,-37],[110,-27],[150,-60],[85,-81],[140,-108],[35,-41],[110,-90],[69,-38],[31,-35],[93,-76],[30,-6],[63,-48],[90,-13],[77,-54],[70,-34],[113,-25],[76,-32],[81,0],[93,-17],[72,-23],[159,-5],[52,-8],[69,-59],[156,-109],[46,-82],[111,-135],[139,-98],[22,-28],[97,-28],[247,-16],[151,13],[186,79],[163,37],[143,0],[62,-10],[144,-7],[200,-35],[53,-2],[97,36],[52,1],[98,100],[105,72],[10,61],[-36,67],[-12,114],[12,114],[-25,108],[-54,146],[-7,47],[56,44],[149,37],[144,75],[44,11],[87,-60],[52,-17],[49,13],[39,-14],[107,0],[40,-9],[52,12],[65,-79],[127,-37],[121,0],[104,25],[49,-6],[48,29],[66,-81],[130,-47],[114,11],[44,42],[56,13],[49,-19],[52,-81],[86,-79],[57,-76],[28,-56],[38,-116],[52,-53],[109,-44],[78,-49],[51,-63],[48,-81],[78,-28],[143,-19],[81,15],[60,70],[11,106],[45,63],[5,47],[75,56],[51,11],[68,41],[90,2],[48,29],[45,58],[-16,63],[119,1],[50,24],[100,-130],[113,18],[47,22],[23,53],[58,29],[82,19],[26,40],[103,89],[128,-47],[68,33],[60,6],[3,73],[28,85],[44,71],[65,4],[38,54],[21,95],[49,49],[44,20],[40,40],[11,40],[59,62],[64,-29],[99,-5],[35,15],[98,8],[71,36],[177,-1],[15,64],[105,107],[-19,28],[3,51],[37,24],[67,74],[61,19],[34,44],[141,12],[17,45],[35,34],[50,89],[33,39],[8,101],[62,19],[145,6],[56,-33],[15,-35],[-8,-57],[12,-53],[52,-116],[-1,-32],[48,-49],[43,34],[150,39],[116,13],[19,14],[-10,69],[67,85],[-7,111],[68,63],[2,24],[50,48],[58,37],[-12,73],[8,37],[-26,64],[31,47],[-5,44],[48,76],[69,28],[20,23],[149,3],[55,80]],[[61771,51641],[99,-7],[87,-25],[40,45],[147,-6],[117,26],[39,-2],[140,14],[26,28],[53,12],[115,0],[51,-9],[43,22],[61,55],[51,9],[93,95]],[[65656,50342],[-69,-42],[-21,-56],[-113,-22],[-35,-77],[-44,-54],[-48,-101],[42,-112],[-44,-39],[-39,-84],[-20,-134],[40,-78],[9,-65],[-16,-23],[-56,-20],[-63,-66],[-42,-60],[-56,-116],[-66,-16],[-65,31],[-104,-38],[-130,19],[-6,-68],[-31,-163],[-124,-129],[-27,-48],[-48,-1],[-54,30],[-26,-51],[-54,-58],[-103,-64],[-28,-39],[34,-63],[26,-174],[45,-71],[-7,-44],[11,-73],[-17,-73],[-105,-36],[-61,-3],[-78,22],[-60,-32],[-65,-12],[-48,-99],[-49,-48],[-68,-23],[-52,22],[-70,-19],[14,-93],[-19,-96],[-61,-52],[-21,-44],[-105,-127]],[[63459,47460],[-81,64],[-121,63],[-131,54],[-49,9],[-92,-22],[-66,52],[-51,12],[-112,-2],[-88,-24],[-27,53],[-76,-10],[-9,-56],[-63,-11],[-27,-59],[-94,11],[-72,-21],[-57,38],[-68,-18],[-38,35],[-17,72],[-57,4],[-102,44],[-9,40],[-55,33],[9,24],[-30,68],[-74,-5],[-89,-22],[-58,-47],[-57,-87],[-79,-193],[-43,-61],[-20,-61],[-69,-15],[-63,-40],[-33,30],[-112,46],[4,54],[-68,-11],[-166,70],[-80,-82],[-48,-16],[-90,-50],[-74,10],[-62,-10],[-95,30],[-83,-72],[-19,-52],[-67,-43],[-69,-11],[-64,-48],[-61,29],[-113,139],[-113,102],[-71,-74],[-7,-41],[-59,-90],[-87,-7],[-112,-38],[-64,2],[-39,-82],[-62,-69],[-7,-71],[-25,-48],[-118,-72],[-76,13],[-70,-16],[-33,13],[-90,-14],[-109,24],[-77,-9],[-56,25],[-103,-12],[-197,-114],[-34,-41],[-6,-39],[-56,-58],[5,-41],[-46,-41],[-44,-63],[-44,-40],[-70,-6],[-10,-19],[-123,-95],[-45,-1],[-59,-53],[-66,-37],[-40,-52],[-96,-1],[-37,-77],[-107,-90],[-38,69],[-63,38],[-67,-5],[-29,-23],[-103,-17],[-41,-96],[2,-37],[-47,-54],[-53,35],[9,52],[-38,100],[-27,31],[-58,-26],[-107,18],[-91,-59],[-63,-52],[-14,-41],[-90,-149],[10,-24],[-34,-95],[-28,-32],[-22,-77],[-61,-30],[-16,-91],[-156,-55],[2,-85],[-64,-47],[-74,30],[-30,-21],[-96,-19],[-79,-28],[-18,48],[-61,22],[-146,-8],[-56,6],[-64,64],[-127,82],[-51,0],[-24,-53],[-78,-41],[-99,-93],[-89,-57],[-51,-57],[-111,-17],[-86,-39],[-62,-49],[-106,4],[-27,29],[-66,1],[-52,28],[-9,38],[-39,44],[-204,42],[-77,-17],[-18,-27],[32,-55],[48,-20],[-2,-90],[-60,-85],[4,-88],[-35,-28],[-86,-31],[-12,-50],[-76,-79],[-48,-70],[-36,123],[20,29],[24,115],[49,47],[-52,140],[-25,46],[-106,146],[-59,5],[-80,-33],[-110,9],[-56,28],[-21,86],[-48,58],[-74,4],[-29,-14],[-83,14],[-45,-43],[-8,-36],[-70,-32],[-49,-44],[-37,-81],[-9,-72],[10,-34],[-87,-113],[44,-56],[-1,-26],[-49,-66],[-30,-11],[-9,-158],[16,-68],[-8,-143],[16,-100],[-108,-12],[-75,-24],[-22,-23],[-49,-2],[-43,30],[-43,-40],[-12,-38],[-52,4],[-44,-37],[-11,-72],[-68,-96],[9,-57],[-144,-216],[17,-35],[-42,-31],[-20,-39],[-45,-35],[-14,-48],[29,-25],[-47,-36],[-64,-7],[-53,-54],[-3,-73],[-34,-6],[-63,-53],[-64,-36],[-88,-95],[-20,-8],[-16,-107],[-61,0],[-100,-58],[-98,-7],[-93,-74],[-46,9],[-102,-86],[-47,74],[-201,120],[-40,19],[-254,14],[-260,-91],[-237,40],[-134,49],[-192,92]],[[49993,43177],[-280,187],[-30,37],[-45,14],[-109,100],[-81,-44],[-51,44],[-54,67],[-43,-33],[34,-81],[-31,-50],[-55,30],[-61,7],[-32,20],[-23,48],[-46,2],[-107,-32],[-69,10],[-21,65],[80,105],[-15,47],[-28,20],[-4,102],[-27,31],[-22,79],[46,99],[-5,241],[-28,55],[-96,45],[-82,211],[-7,122],[-50,188],[0,69],[-189,5],[-65,48],[-109,-5],[-127,27],[-52,25],[-45,42],[-140,0],[-78,-26],[-148,32],[-151,55],[-86,4],[-81,23],[-89,54],[-94,148],[-133,36],[-31,16],[-69,111],[-115,160],[-6,27],[43,77],[6,89],[-107,209],[-28,76],[-38,61],[-122,295],[-66,139],[-71,77],[-376,129]],[[46084,46916],[90,211],[73,118],[-35,5],[-75,-165],[-76,13],[-336,126],[143,357],[9,-5],[-66,-156],[82,43],[64,156],[25,25],[164,380],[34,70],[-34,23],[84,200],[104,-45],[198,394],[-5,14],[-106,48],[-43,81],[-44,45],[3,52],[140,-12],[108,-37],[70,44],[53,59],[43,19],[67,92],[53,104],[9,45],[-66,34],[62,32],[64,6],[18,-18],[91,-33],[10,-22],[170,-87],[72,41],[54,137],[-9,53],[-64,57],[-88,12],[-24,44],[248,15],[3,57],[-22,26],[44,62],[-23,73],[54,16],[-15,41],[62,76],[23,54],[24,123],[4,92],[48,77],[-5,34],[67,84],[29,-13],[37,41],[51,99],[71,66],[99,114],[47,99],[55,64],[29,64],[30,30],[43,98],[17,110],[82,90],[26,72],[181,164],[81,85],[61,91],[70,68],[90,129],[13,57],[33,48]],[[46973,49328],[93,72],[3,-44],[-75,-63],[-21,35]],[[49482,27077],[40,-30],[16,-106],[-50,-55],[-14,-66],[-33,-71],[-64,2],[-42,-30],[-60,-77],[-3,-46],[-44,-46],[-39,-124],[-50,-48],[70,-158],[-55,-44],[1,-45],[-27,-66],[-127,-11],[-6,-25],[33,-57],[-127,-81],[-37,-52],[-47,-23],[-81,8],[-35,-75],[-32,-6],[-43,-78],[20,-32],[-10,-45],[-122,-96],[-40,-40],[-55,-17],[-41,-61],[-32,-77],[-23,-8],[-32,-106],[-84,-91],[-45,-100],[11,-50],[-16,-117],[-29,-45],[-73,-83],[-93,-143],[-28,-31],[-25,-69],[-38,-28],[15,-65],[-36,-35],[-57,-87],[-69,-75],[-60,-28],[-24,-41],[-44,-23],[-37,-39],[10,-37],[-121,-114],[-28,-3],[-109,-49],[-16,-26],[-155,-69],[-1,-33],[-60,-36],[-72,-15],[-92,-67],[-79,-78],[11,-46],[-27,-33],[-41,-7],[-80,-71],[-42,-57],[-78,-73],[-34,-13],[-100,-125],[-122,-90],[-58,-21],[-66,-45],[-104,-46],[-77,-65],[-23,-70],[-27,-126],[-36,-50],[-161,-23],[-67,24],[-139,-4],[-15,-35],[38,-73],[-48,-45],[40,-74],[-34,-47],[-86,23],[-36,-90],[-3,-42],[32,-40],[-2,-36],[-32,-46],[-70,-28],[-97,47],[-45,-43],[-11,-74],[-45,-107],[-31,-52],[-47,-115],[-62,-88],[-6,-72],[-41,-83],[-43,-159],[-48,-25],[-9,-70],[-75,-135],[1,-32],[-44,-98],[-38,-46],[-32,-90],[-130,-46],[-28,-35],[-48,47],[-25,73],[-64,-1],[-31,17],[-13,51],[-75,24],[-78,-8],[-73,-34],[-33,-47],[-90,45],[-42,-9],[-5,-32],[-61,-12],[-26,-69],[-35,-5],[-51,-71],[28,-30],[-15,-32],[-68,-42],[-54,-13],[-4,-48],[-84,-36],[-19,-63],[-59,-38],[-43,-62],[-60,-31],[21,-33],[-63,-17],[-48,31],[-72,-22],[-257,-4],[-36,33],[-72,152],[-60,41],[-73,-104],[-22,-5],[-54,65],[-46,30],[-111,19],[-127,-2],[-78,13],[-122,38],[-172,36],[-111,1],[-26,-27],[37,-146],[-110,-22],[-86,29],[-63,40],[-134,66],[-38,-1],[-26,-58],[39,-48],[-8,-34],[-42,-19],[-50,6],[-67,33],[-64,47],[-45,62],[-49,45],[-135,33],[-60,6],[-20,21],[-18,89],[6,94],[-29,28],[-79,-15],[-85,-104],[-41,-27],[-114,17],[-67,40],[-64,58],[-71,-11],[-82,36],[-92,62],[-80,35],[-88,-20],[-98,-58],[-124,-103],[-35,-12]],[[39779,20699],[4,33],[-32,25],[2,60],[36,182],[3,110],[-18,107],[-53,210],[-30,82],[-71,159],[-81,121],[-70,-32],[-90,25],[3,55],[74,63],[10,39],[-61,122],[-126,145],[-123,119],[-64,45],[-7,24],[-105,90],[-160,124],[-45,29],[-297,233],[-34,38],[-73,32],[-267,158],[-235,132],[-76,50],[-145,46],[-52,27],[-116,31],[-127,64],[-34,31],[-51,143],[-31,64],[-53,64],[-60,49],[-144,87],[-55,22],[-33,35],[-22,53],[59,238],[11,109],[-11,71],[22,77],[-6,70],[61,82],[62,183],[27,44],[72,52],[25,80],[45,82],[156,212],[38,83],[48,47],[13,88],[-5,76],[13,90],[61,171],[42,139],[-8,67],[29,104],[-6,30],[24,44],[-10,29],[81,113],[141,274],[8,88],[39,44],[-15,88],[-38,20],[50,92],[11,64],[-44,124],[22,120],[53,15],[62,50],[-36,22],[7,59],[54,101],[70,248],[25,123],[35,322],[14,64],[-16,96],[26,77],[33,43],[101,27],[80,-2],[29,59],[-71,-3],[6,58],[74,134],[36,35],[53,113],[54,155],[-7,202],[20,46],[5,77],[30,24]],[[38624,29435],[290,-213],[81,-31],[185,-121],[61,-51],[1,-109],[27,-27],[88,0],[29,-56],[99,6],[66,-21],[73,-38],[73,-65],[32,-54],[63,-153],[59,-53],[41,-18],[127,-18],[45,4],[11,28],[-68,74],[-9,36],[53,86],[67,-21],[184,-136],[69,-32],[87,-14],[67,29],[52,-5],[58,39],[73,33],[103,148],[36,78],[8,53],[65,135],[66,83],[21,61],[47,73],[161,-2],[81,47],[133,40],[217,195],[8,84],[-76,7],[-59,-13],[80,136],[64,49],[52,3],[67,-25],[81,-97],[73,10],[98,43],[-3,72],[-46,98],[-1,69],[42,104],[65,68],[78,100],[125,-1],[94,13],[88,-21],[60,11],[-13,155],[14,53],[81,58],[57,-2],[77,-98],[144,51],[23,-15],[77,12],[188,217],[2,33],[68,44],[63,19],[92,-1],[114,29],[435,15],[64,14],[254,68],[160,57],[70,65],[57,-68],[71,23],[68,-50],[30,-94],[52,57],[35,-11],[164,29],[10,59],[101,33],[22,21],[67,-5],[61,-43],[148,-56],[19,-32],[58,-2],[106,-58],[22,-29],[62,-32],[78,-5],[13,-23],[79,-26],[55,-85],[-17,-53],[46,-14],[40,-63],[26,33],[35,4],[27,39],[38,2],[108,85],[60,-15],[71,-73],[-7,-40],[43,-29],[-45,-71],[-54,-2],[-56,-33],[-126,-49],[-21,-17],[-20,-69],[-5,-95],[27,-39],[54,32],[24,40],[62,-13],[60,-59],[35,9],[69,-39],[56,22],[46,-1],[76,-83],[43,-31],[42,-75],[-8,-93],[-81,-49],[-45,53],[-18,-11],[-25,-73],[20,-40],[-4,-59],[70,-70],[48,21],[107,-6],[28,-24],[80,-18],[47,-22],[27,-47],[29,19],[86,-23],[71,-33],[63,-66],[64,-109],[-61,-29],[-20,-45],[-82,-64],[-8,-64],[-87,-69],[-68,-26],[-28,-32],[17,-62],[11,-124],[43,-113],[1,-95],[-32,-18],[-54,-75],[23,-72],[-4,-59],[-36,-34],[23,-121],[-34,-42],[61,-71],[54,-38],[12,-51],[28,-23],[28,-103],[52,-48],[-32,-131],[-53,-76],[-73,-65],[-106,-57],[16,-31],[51,-40],[47,-66],[35,-31],[62,30],[41,-17],[6,-37],[48,-19],[45,4],[69,-30],[37,2],[148,-84],[29,-57],[45,-12],[47,-53],[67,-17],[66,12],[75,72],[149,-64],[50,-2],[70,-59],[37,95],[37,12],[62,67],[29,14],[75,202],[40,68],[5,51],[59,-44],[23,-54],[-1,-68],[18,-54],[113,-60],[75,-6],[67,-64],[62,28],[78,-9],[24,37],[143,39],[67,44],[127,-7],[90,-24],[69,-44],[36,-9],[55,37],[27,-32],[73,-31],[34,10]],[[72367,67140],[-6,14],[51,74],[59,40],[37,-15],[-36,-80],[-30,4],[-75,-37]],[[72798,66051],[42,-90],[1,-42],[-29,-43],[20,-43],[-53,-67],[-54,54],[-79,25],[-32,-46],[60,-43],[36,-44],[-22,-98],[-61,-35],[-100,-2],[-77,114],[-51,-30],[-77,18],[-137,53],[-66,-106],[-60,-49],[-71,19],[-83,-20],[-42,-48],[-107,18],[-37,-27],[17,-38],[38,-20],[25,38],[40,-3],[33,-49],[10,-56],[-25,-32],[63,-25],[-9,-84],[-23,-43],[30,-84],[-13,-40],[0,-81],[19,-70],[31,-50],[110,7],[52,-21],[50,-71],[32,-24],[42,-62],[-54,-65],[-30,-76],[-38,5],[-95,-75],[-24,-47],[-30,-9],[-64,52],[-169,-49],[-67,-69],[-34,-15],[-124,2],[-45,35],[-57,-13],[-54,-29],[-70,37],[-61,79],[-55,1],[-18,32],[-59,30],[-25,45],[-112,88],[-58,-6],[-55,-24],[-51,28],[-101,-9],[-56,53],[-97,7],[-68,27],[-93,64],[-96,79],[49,115],[4,59],[-48,9],[-84,-84],[-43,-1],[-104,43],[-68,73],[-62,7],[-13,26],[-54,16],[-51,41],[-8,40],[-95,60],[-34,69],[66,57],[-40,98],[-80,82],[-12,34],[11,118],[-28,42],[-34,93],[-98,63],[-75,-6],[-105,72],[-32,39],[-23,76],[47,42],[110,45],[84,7],[18,29],[58,-14],[83,15],[59,-17],[52,71],[76,17],[51,62],[126,1],[96,23],[48,44],[123,3],[12,30],[57,40],[33,3],[95,47],[30,48],[57,50],[77,1],[74,21],[38,37],[25,84],[79,9],[58,34]],[[70886,66862],[-4,-86],[-23,-53],[-7,-79],[87,-14],[94,33],[104,-31],[77,16],[20,-29],[89,-15],[38,-38],[75,-35],[35,29],[87,-73],[118,-15],[95,44],[41,79],[24,-59],[72,38],[51,15],[29,33],[120,-36],[32,-40],[61,3],[61,-26],[-62,-79],[23,-52],[79,-27],[73,-4],[30,-27],[10,-53],[60,-39],[37,-4],[50,-36],[46,-54],[29,22],[2,39],[-42,64],[48,20],[56,-24],[61,24],[102,17],[-13,-72],[-30,-3],[-37,-69],[39,-70],[-25,-45]],[[35683,87069],[1,0]],[[35684,87069],[-56,-49]],[[35628,87020],[-33,-36],[10,-37],[-23,-57],[-102,-102],[-6,-37],[-31,-23],[-69,46],[-62,-14],[-13,-81],[-48,-16],[-87,-95],[-82,-7],[-38,50],[-35,1],[-109,-75],[-16,-42],[-47,-26],[-50,-4],[10,57],[-36,21],[-70,-11],[-86,10],[-44,64],[-45,-20],[-22,42],[30,34],[3,38],[74,62],[-7,42],[69,62],[-39,45],[-54,6],[93,56],[1,41],[27,40],[-72,55],[27,33],[-18,25],[10,54],[42,9],[52,-29],[26,-45],[107,3],[-18,-84],[-47,-84],[9,-55],[75,-13],[59,20],[-7,-49],[64,0],[7,-54],[55,-31],[43,48],[88,17],[-10,22],[18,71],[-6,43],[111,56],[58,17],[28,-25],[87,21],[149,-28],[55,18]],[[36306,88741],[56,-22],[58,56],[50,-8],[-27,-81],[-36,-36],[-46,-6],[-54,-43],[-50,-18],[-14,31],[63,127]],[[36493,88788],[40,70],[49,-18],[20,-39],[-76,-18],[-33,5]],[[35962,89318],[46,51],[61,-8],[-8,48],[74,32],[52,-22],[-57,-45],[56,-119],[-72,-39],[34,-68],[-23,-24],[-76,-42],[-58,-4],[-43,16],[-35,45],[39,82],[55,13],[10,63],[-55,21]],[[35684,87069],[-1,0]],[[35683,87069],[1,0]],[[35791,87012],[-21,-53],[-33,-16],[3,105],[31,43],[44,-57],[-24,-22]],[[46431,91016],[-42,-32],[-13,-39],[-43,26],[-81,-41],[-24,48],[-46,-33],[-60,-2],[-5,34],[33,28],[4,51],[28,4],[26,58],[-40,64],[-68,22],[-60,-60],[-16,20],[13,89],[-27,34],[15,65],[-81,-43],[-22,-57],[-38,34],[-14,54],[99,45],[-17,60],[46,21],[86,-55],[43,-11],[20,-66],[-33,-60],[-5,-61],[72,-28],[62,40],[70,-24],[14,86],[39,57],[40,17],[90,-17],[-29,-75],[44,-18],[24,-39],[97,11],[65,-72],[19,-47],[-55,-20],[-37,25],[-55,-11],[-25,62],[-44,-22],[6,-33],[-49,-80],[-26,-9]],[[35578,82551],[41,-54],[-41,-36],[0,90]],[[35868,83117],[-46,-86],[89,-13],[21,-42],[92,79],[75,-23],[-2,-52],[-80,-62],[-8,-56],[-52,-9],[-58,-41],[10,-40],[-89,-77],[-47,32],[-30,-1],[-53,-56],[-42,-12],[-33,-61],[-47,12],[14,73],[53,73],[4,42],[82,43],[31,64],[3,71],[25,13],[30,61],[11,81],[47,-13]],[[40981,90681],[-40,-22],[-48,-79],[-74,-31],[-13,-50],[-42,24],[29,28],[16,60],[54,6],[28,52],[87,44],[3,-32]],[[35771,87728],[32,-50],[-4,-56],[47,-2],[9,-32],[-59,-12],[-12,43],[-29,12],[-81,-28],[-17,54],[-16,124],[70,53],[-31,38],[17,48],[52,71],[-30,21],[-16,46],[13,43],[-39,47],[83,0],[76,66],[30,2],[46,42],[33,-22],[54,3],[128,131],[44,19],[35,56],[-2,27],[47,34],[86,-4],[43,-90],[57,21],[30,-10],[-17,-49],[23,-49],[2,-53],[100,37],[77,-18],[-44,-64],[11,-35],[-65,-36],[-17,-31],[37,-33],[3,-73],[-39,6],[-9,77],[-31,16],[-24,63],[-78,5],[-43,-16],[-46,14],[-28,-86],[-81,5],[-31,-57],[-90,58],[-69,-3],[-12,-18],[-129,-54],[-81,-79],[-22,-67],[24,-42],[-2,-112],[-15,-1]],[[34910,83056],[-119,145],[17,49],[37,22],[98,3],[45,-25],[79,28],[61,5],[147,-8],[22,-53],[-66,-76],[-64,-53],[-43,12],[-48,-29],[11,-28],[-67,-59],[-83,78],[-27,-11]],[[63459,47460],[98,-220],[33,-49],[-21,-67],[27,-133],[-22,-21],[-69,10],[-101,-30],[-91,11],[-58,-33],[-151,-42],[-44,-80],[-53,-11],[-63,-69],[-33,-60],[-110,-47],[-87,-56],[-146,0],[-84,-51],[-75,-8],[-72,11],[-21,-40],[28,-53],[12,-140],[-7,-96],[8,-80],[-66,-11],[-88,20],[4,-73],[47,-15],[29,-33],[-8,-128],[-37,-105],[-22,-106],[181,-43],[103,-17],[69,-51],[121,-130],[69,-31],[118,-77],[45,-41],[79,2],[100,-10],[67,-29],[-2,-51],[-41,-82],[-9,-111],[-69,-64],[-68,-87],[4,-51],[41,-83],[44,-47],[-5,-30],[-110,-110],[-75,-41],[-119,-86],[-44,-79],[-73,-58],[-41,-80],[-26,-20],[-70,44],[-45,-46],[-62,-28],[-21,-28],[-61,-20],[-18,-40],[-47,-38],[-7,-63],[41,-42],[16,-74],[-2,-122],[-60,-89],[-16,-60],[-32,-28],[-24,-66],[-50,-61],[-4,-85],[-89,-141],[-47,-111],[9,-22],[-40,-60],[-52,-55],[-24,-59],[-67,-85],[-22,-73],[19,-41],[16,-148],[64,-120],[181,-5],[28,-70],[12,-74],[44,-44],[-36,-53],[-21,-75],[14,-81],[-23,-86],[-57,-65],[50,-52],[-16,-32],[11,-47],[-40,-71],[36,-42],[1,-63],[18,-57],[-28,-41],[62,-116],[-28,-81],[23,-45],[-17,-90],[14,-48],[-20,-40],[-97,-25],[-80,16],[-106,-94],[25,-68],[75,-13],[-16,-48],[15,-39],[-7,-74],[34,-34],[20,-116],[-57,-7],[-43,-38],[-9,-38],[26,-57],[18,-78],[-74,-10],[-67,5],[-27,-64],[-76,-28],[-3,-105],[-51,-40],[-4,-86],[-32,-62],[5,-31],[-76,-51],[-23,-31],[-11,-62],[-83,-97],[-2,-59],[-30,-92],[7,-59],[-30,-99],[17,-84],[-57,-68],[-4,-115],[-49,-35],[-38,-5],[-57,-38],[10,-57],[-29,-20],[-19,-132],[23,-52],[7,-84],[70,-26],[0,-40],[-42,-59],[-96,-57],[-87,-18],[-15,-30],[-116,-65],[-29,-26],[-43,9],[-48,-19],[-20,-49],[-28,-7],[42,-103],[41,-30],[-45,-58],[95,-41],[40,-67],[111,-27],[59,-75],[75,-18],[85,8],[63,-33],[16,-48],[-64,-19],[-26,-53],[0,-97],[-10,-75],[29,-73],[-4,-53],[72,-2],[11,-50],[53,-66],[61,1],[-31,-92],[34,-71],[-14,-71],[19,-56],[28,-19],[0,-69],[-36,-123],[40,-27],[-40,-80],[1,-157],[-40,-33],[-28,-57],[-38,-35],[-36,-75],[48,-68],[26,-76],[-4,-148],[-80,-98],[-24,-89],[10,-42],[-18,-66],[-53,-61],[-74,-133],[-1,-115],[19,-62],[-2,-59],[-23,-79],[-48,-65],[-27,-61],[-54,-48],[-30,-157],[-24,-35],[-22,-96],[-110,-48],[-30,-46],[-136,9],[-119,84],[-87,-82],[-11,-37],[-123,-35],[-19,-38],[-51,-22],[4,-54],[-20,-80],[-40,-18],[-33,22],[-79,8],[-45,53],[-51,9],[-127,-2],[-47,-26],[-51,26],[-44,-4],[-29,-101],[-3,-157],[30,-51],[109,-39],[36,-4],[-6,-79],[-45,-34],[-12,-80],[-129,-9],[-16,-39],[-83,-62],[31,-37],[67,-153],[-52,-119],[-8,-81],[-22,-35],[30,-27],[48,-78],[6,-34],[-84,3],[-167,-126],[-38,-53],[-26,-65],[-57,-8],[-44,62],[-50,11],[-37,-28],[-121,81],[-67,12],[-34,-29],[-115,-24],[-61,8],[-61,-10],[-57,48],[-71,9],[-81,-78],[-27,-65],[-81,-13],[-106,13],[-83,35],[-75,21],[-132,21],[6,-73],[-19,-65],[-36,-77],[1,-35],[-64,-48],[-19,-91],[-98,-65],[-64,-11],[-28,-41],[28,-78],[-12,-43],[-72,-25],[-31,-83],[-66,-42],[-35,-46],[-87,-80],[13,-21],[62,-25],[91,-70],[43,-9],[33,-75],[70,-17],[93,-38],[-18,-33],[-52,-19],[-50,-74],[0,-46],[-34,-50],[-87,3],[-62,-41],[-69,-15],[-47,-28],[-77,-22],[-25,-45],[-42,-29],[-48,-9],[-52,-56],[-87,0],[-55,-56],[-87,-20]],[[56816,31373],[-21,48],[-71,67],[-5,103],[46,56],[50,26],[15,37],[-26,63],[-54,44],[-35,59],[-50,58],[-77,5],[-82,-17],[-325,96],[-46,41],[-221,4],[-31,35],[-49,19],[-25,-19],[-87,0],[-73,-26]],[[55649,32072],[-42,-3],[-82,-37],[-82,-8],[-47,12],[-72,43],[-49,49],[-37,18],[-66,-6],[-52,-44],[-101,47],[-109,39],[-70,16],[-62,-20],[-86,31],[-46,-7],[-138,4],[-36,-13],[-74,10],[-40,-9],[-136,4],[-55,-23],[-82,-141],[-142,16],[-89,37],[-49,44],[-66,25],[-108,-15],[-35,11],[-129,-25],[-55,16],[-99,7],[-61,-43],[-70,28],[-71,51],[-50,111],[-58,53],[-19,110],[-19,33],[4,100],[-36,42],[-16,50],[25,92],[-26,97],[7,42],[-73,90],[-7,93],[22,33],[-45,39],[-76,111],[-30,68],[-52,63],[-32,14],[-11,129],[15,77],[23,17],[31,86],[63,16],[27,30],[-39,58],[99,88],[34,40],[-14,44],[32,78],[3,62],[-43,72],[35,127],[86,105],[-100,65],[-38,81],[-38,42],[34,54],[-19,27],[-78,29],[-50,-16],[-35,-32],[-90,-1],[-27,-37],[-67,-1],[-39,13],[-81,0],[-72,73],[-74,6],[-72,-11],[-85,18],[-59,47],[-66,35],[-65,7],[-17,51],[-55,30],[-60,52],[-113,0],[-70,41],[-83,-4],[-28,-42],[-141,6],[-73,-51],[-57,-10],[-102,25]],[[49216,38527],[44,-6],[316,109],[118,23],[54,28],[63,54],[96,66],[113,45],[80,-3],[-11,80],[-90,10],[-20,162],[16,49],[-43,55],[-45,21],[-85,-29],[-88,-51],[-17,-22],[-56,7],[-77,-19],[-61,-33],[-73,-7],[-79,85],[-70,19],[-118,105],[22,48],[-21,51],[-40,-1],[8,103],[-77,8],[-51,37],[-14,49],[-34,17],[-42,59],[-23,10],[-59,-54],[-26,62],[-97,-47],[-10,40],[59,7],[9,50],[40,4],[50,57],[-37,48],[76,49],[46,110],[-60,22],[-33,40],[6,31],[-60,36],[-10,39],[27,84],[37,-7],[50,82],[-21,70],[40,54],[16,81],[28,43],[10,80],[59,20],[36,28],[11,183],[-39,43],[-23,154],[36,28],[-8,30],[33,122],[36,3],[18,105],[-86,77],[-72,26],[6,33],[55,39],[10,47],[73,41],[-51,39],[-35,47],[45,38],[-107,120],[-37,52],[44,5],[63,46],[-118,24],[21,18],[70,-16],[58,-34],[23,-36],[71,41],[69,73],[40,87],[55,24],[-2,178],[-10,17],[32,104],[42,94],[-2,55],[-89,84],[-42,29],[-119,57],[-24,38],[-5,58],[44,122],[40,27],[25,48],[86,21],[75,-20],[28,7],[215,-3],[96,-12],[21,-15],[82,-10],[52,24],[-58,44],[116,26],[42,60]],[[24468,26657],[-29,33],[-44,11],[-20,61],[-111,93],[-10,51],[42,-1],[16,-31],[72,56],[77,3],[30,15],[237,47],[63,2],[80,16],[131,-15],[32,-11],[-28,-61],[-55,-53],[-9,-126],[-25,-27],[18,-55],[-4,-79],[-79,23],[-67,3],[-53,-77],[-67,-26],[-9,-70],[46,-44],[-9,-62],[-41,8],[-110,66],[-45,-6],[5,96],[-42,-2],[23,69],[-15,93]],[[28093,38176],[57,27],[58,53],[8,28],[49,1],[4,-63],[-99,-73],[-39,-125],[-29,-61],[-48,6],[-3,65],[43,78],[-1,64]],[[28244,37821],[1,50],[72,46],[53,-10],[-18,-34],[51,-42],[50,-6],[78,-37],[50,-50],[17,-76],[-86,-42],[-61,9],[-53,-27],[-44,25],[-107,-103],[-34,-85],[-55,-51],[-37,94],[-87,58],[30,88],[82,31],[53,45],[45,117]],[[27209,36949],[-41,60],[46,42],[-11,40],[22,37],[-46,33],[27,43],[40,-9],[12,-93],[-13,-51],[32,-56],[-68,-46]],[[28280,36989],[-21,17],[38,45],[27,-54],[-44,-8]],[[29572,36415],[-30,28],[-5,69],[52,-22],[-26,-43],[9,-32]],[[29497,36284],[-62,23],[20,29],[-12,52],[36,30],[20,-76],[23,-39],[-25,-19]],[[29510,36231],[54,54],[28,-32],[-82,-22]],[[27231,36231],[-45,52],[55,-1],[-10,-51]],[[28407,36065],[45,71],[38,93],[-40,22],[28,29],[36,-12],[-56,-125],[-51,-78]],[[29319,35937],[-24,76],[77,18],[36,68],[0,56],[52,-9],[-10,-48],[13,-104],[-56,-61],[-78,24],[-10,-20]],[[28806,35610],[-17,73],[-31,-3],[1,78],[37,36],[59,-16],[-3,-67],[-45,-33],[-1,-68]],[[27507,35071],[-59,26],[4,41],[38,54],[35,-88],[-18,-33]],[[26273,27712],[65,27],[34,47],[2,59],[94,64],[64,-20],[5,-46],[-51,-27],[-32,-56],[-34,-30],[-57,-13],[-56,-47],[-34,42]],[[29444,27772],[26,58],[78,27],[90,2],[31,27],[59,-28],[5,-44],[-31,-20],[0,-65],[-66,-51],[-49,-71],[12,-52],[-19,-72],[-52,38],[-1,25],[-62,55],[-13,32],[40,30],[0,47],[-38,29],[-10,33]],[[29334,27799],[-55,14],[32,73],[39,5],[17,-32],[-33,-60]],[[28322,27540],[-29,35],[0,47],[79,36],[87,13],[84,-9],[2,-62],[-30,-30],[40,-42],[-85,-57],[-114,38],[-34,31]],[[25934,30276],[17,42],[37,23],[19,64],[-57,33],[-20,75],[-51,40],[27,41],[67,5],[26,-57],[35,-6],[26,-63],[117,26],[-5,43],[44,-7],[36,-76],[-16,-69],[10,-37],[-19,-36],[37,-32],[9,-61],[-9,-49],[57,-41],[-70,-51],[34,-31],[62,7],[38,86],[36,-22],[-22,-44],[21,-79],[-98,-48],[-36,16],[-39,-29],[-13,-48],[24,-82],[27,-45],[83,-54],[-13,-24],[-65,29],[-51,1],[-51,30],[-63,1],[-50,-25],[-48,9],[-86,-14],[-42,-18],[-56,33],[-25,38],[64,57],[6,42],[90,79],[-25,108],[32,47],[-27,43],[6,61],[-42,21],[12,48]],[[22341,30664],[-18,33],[28,43],[37,9],[25,64],[8,80],[46,-10],[54,-50],[19,-37],[81,4],[35,-45],[-64,-39],[3,-44],[-79,-40],[-39,13],[-59,-29],[-63,13],[-14,35]],[[26380,30261],[-46,30],[47,52],[20,-54],[-21,-28]],[[26568,29962],[81,53],[-21,50],[91,34],[35,-8],[97,39],[56,-23],[71,-166],[-48,3],[-25,23],[-59,-15],[-82,30],[-149,-85],[8,-83],[-82,55],[-41,43],[-34,10],[22,59],[80,-19]],[[22461,29092],[-50,42],[40,18],[28,-30],[-18,-30]],[[22781,28965],[-33,11],[-8,59],[22,45],[32,-26],[-13,-89]],[[26316,27930],[-29,21],[-96,17],[-33,49],[-3,39],[55,13],[72,-5],[30,-45],[4,-89]],[[30141,35081],[-13,61],[37,-4],[-24,-57]],[[29666,34787],[-60,8],[36,40],[24,-48]],[[26479,32873],[-91,17],[30,105],[69,-51],[44,43],[0,-95],[-52,-19]],[[26327,32348],[-41,20],[-16,34],[18,54],[-3,55],[53,6],[37,-91],[68,-2],[64,66],[16,52],[85,5],[76,63],[70,9],[42,-8],[59,44],[84,-53],[30,-39],[-90,-14],[-43,-18],[-163,-108],[-113,-6],[-68,-21],[-53,2],[-60,-38],[-52,-12]],[[27731,35989],[-65,20],[-129,-3],[-79,-48],[-19,-69],[-82,-76],[-51,50],[-122,33],[-204,-227],[-65,-108],[46,0],[1,-54],[-47,-20],[-11,-58],[-57,-1],[-86,-24],[-60,-55],[-112,-1],[-61,23],[-73,-45],[-13,-46],[42,-52],[34,-70],[-30,-19],[5,-43],[35,-46],[-27,-124],[54,-93],[3,-63],[-77,-152],[-91,3],[-50,-45],[40,-90],[37,-44],[-4,-49],[-84,-29],[14,-125],[48,-23],[-21,-32],[-11,-59],[54,-14],[41,-41],[-59,-68],[-78,-8],[-39,28],[-91,29],[-69,5],[-27,19],[-79,9],[-83,-42],[-18,-57],[-30,-12],[-135,34],[-72,-5],[-22,-50],[-39,-38],[-44,6],[-49,-16],[-80,25],[0,60],[31,39],[39,7],[132,68],[58,93],[53,36],[31,-42],[44,-23],[22,-38],[74,-10],[33,13],[73,64],[54,30],[7,24],[58,44],[-1,41],[28,131],[-16,42],[-67,64],[-210,65],[87,17],[0,23],[-54,28],[37,49],[102,-15],[-16,-69],[48,-31],[90,37],[3,37],[-45,61],[18,98],[30,5],[24,72],[48,4],[10,52],[-58,48],[-81,26],[-36,34],[-10,44],[48,42],[43,17],[6,38],[-37,47],[-7,63],[26,73],[27,34],[55,4],[13,53],[70,178],[78,44],[87,-33],[-58,90],[-40,-21],[-28,56],[17,26],[73,-21],[42,20],[82,7],[4,-95],[-63,-61],[-27,-8],[-10,-69],[47,-37],[76,-11],[116,-63],[77,-8],[109,37],[72,109],[210,240],[-52,66],[-14,41],[38,34],[48,83],[114,44],[90,4],[68,19],[29,-16],[76,44],[65,16],[52,46],[58,26],[54,-24],[40,-63],[108,-35],[56,12],[7,30],[49,19],[41,-16],[-5,-42],[80,-57],[-17,-50],[24,-53],[93,-20],[-42,-77],[60,-91],[60,-38],[-8,-54],[-117,-22],[-50,9],[-59,-36],[-8,-52],[26,-49],[-78,-25],[-11,-40],[34,-69],[88,-55],[79,65],[58,-65],[-11,-17],[-82,-13],[-64,-73],[46,-66],[26,-86],[46,11],[106,-28],[8,-118],[-22,-36],[-57,-43],[46,-65],[11,-39],[-9,-45],[17,-29],[59,44],[4,-57],[28,-23],[87,51],[-27,84],[88,13],[84,-20],[-22,-47],[-58,-73],[51,-71],[2,-35],[-62,-48],[7,-63],[-20,-59],[34,-35],[5,-42],[-36,-57],[31,-33],[27,30],[39,4],[17,36],[41,21],[-4,29],[55,129],[-28,90],[82,42],[26,37],[63,-56],[-24,-52],[-45,-36],[-2,-26],[89,-67],[45,35],[-53,22],[19,61],[35,61],[42,12],[2,84],[69,57],[24,123],[92,-38],[30,-38],[-2,-66],[-57,-53],[114,-99],[-13,-69],[36,-38],[64,-17],[7,23],[76,12],[22,57],[-17,25],[24,38],[-22,32],[11,65],[58,-12],[-12,-42],[44,-73],[45,-34],[33,-72],[61,-103],[41,-26],[-29,-38],[-4,-139],[-17,-30],[40,-40],[14,-41],[7,-86],[73,-70],[120,-27],[19,-116],[-40,-17],[-63,7],[-58,-35],[-52,11],[-52,-33],[-48,-11],[-56,23],[-22,48],[54,42],[-18,57],[-29,31],[-74,20],[-72,-4],[-67,-34],[-185,10],[-176,-7],[-96,-48],[-45,-49],[-16,-54],[-70,-36],[-15,-48],[19,-35],[-66,-24],[-14,34],[-57,-9],[-21,-29],[-71,-23],[-67,-56],[4,-87],[-48,20],[-56,2],[-58,-36],[-25,-60],[-34,-17],[-10,-52],[-74,-29],[-30,-84],[41,-61],[108,-4],[-35,-71],[-92,-46],[47,-68],[4,-77],[-36,-27],[-29,28],[-65,5],[-21,32],[-72,36],[-152,0],[-12,-27],[-64,-33],[-158,-14],[-54,-36],[-71,26],[-20,36],[-2,54],[66,95],[-30,89],[-64,56],[-43,21],[-90,5],[-23,-34],[-95,-19],[-71,97],[18,37],[-53,64],[-61,0],[-10,45],[39,30],[-15,43],[-30,10],[-84,-46],[-53,40],[-1,74],[41,70],[44,5],[49,105],[63,-80],[-9,-113],[30,-48],[98,-36],[-8,-57],[18,-28],[-54,-50],[3,-44],[74,-58],[40,0],[33,58],[52,10],[30,40],[41,-13],[78,18],[9,-98],[-12,-60],[27,-18],[21,-71],[88,41],[58,89],[-23,55],[8,57],[44,20],[45,-28],[30,-46],[86,37],[58,-76],[48,-13],[18,45],[31,13],[28,61],[-53,21],[-46,74],[28,49],[65,-21],[20,33],[55,5],[-54,64],[-7,39],[40,21],[6,30],[-55,42],[-86,-9],[-43,28],[-29,48],[-107,-72],[-54,-25],[-48,26],[-173,-70],[-14,59],[-72,-16],[17,55],[-62,-13],[-18,-29],[-59,19],[-18,100],[18,38],[96,-38],[13,-39],[51,-3],[58,35],[44,7],[32,73],[-10,42],[61,59],[-109,96],[-49,-50],[-35,21],[-72,-82],[-142,-12],[-33,-27],[-19,59],[53,11],[8,68],[52,38],[1,48],[73,36],[22,30],[-18,61],[-88,111],[-3,40],[41,10],[57,-17],[201,21],[101,83],[11,80],[36,6],[-25,-71],[67,-62],[-8,-30],[-46,-38],[-10,-61],[-20,-24],[69,-39],[1,-96],[40,-35],[48,6],[26,46],[39,9],[28,-33],[-10,-54],[68,-34],[4,105],[31,34],[13,91],[-25,51],[46,39],[120,11],[12,27],[-3,118],[19,32],[-26,49],[-40,6],[-28,35],[-8,47],[56,39],[2,62],[137,-4],[-5,30],[-52,73],[-95,-24],[-30,10],[-9,43],[-39,16],[-79,67],[91,24],[74,61],[-19,99],[-47,-16],[-26,-30],[-109,40],[-79,-10],[-40,-39],[-11,59],[44,61],[-13,27],[80,54],[25,50],[-42,142],[-95,56],[-11,58],[-31,13],[-16,41],[-77,58],[17,46],[-49,85],[2,51]],[[48827,51882],[138,88],[41,44],[49,11],[62,68],[102,90],[60,65],[48,24],[39,55],[76,16],[-49,31],[71,77],[68,91],[53,28],[23,44],[87,87],[28,48],[43,8],[3,34],[-46,26],[15,62],[88,173],[61,-16],[31,-41],[49,31],[-56,19],[-60,2],[-2,41],[156,215],[157,255],[51,148],[45,100],[46,145],[-1,65],[59,92],[64,115],[123,252],[15,62],[55,108],[31,108],[2,86],[66,88],[7,45],[36,46],[21,63],[100,92],[15,68],[60,52],[58,14],[81,37],[82,25],[44,-19],[82,-6],[11,-58],[37,-4],[46,65],[116,66],[105,-19],[9,71],[-17,118],[-79,9],[111,181],[33,160],[97,117],[125,99],[4,68],[52,21],[94,99],[5,33],[140,38],[146,15],[204,42],[36,17],[204,52],[117,-10],[136,20],[10,69],[28,58],[64,96],[126,83],[128,115],[215,173],[88,158],[22,84],[8,112],[41,88],[14,72],[37,37],[144,111],[85,83]],[[54046,57883],[51,-39],[45,23],[31,-33],[54,22],[73,-43],[129,34],[82,58],[90,90],[39,8],[18,-32],[6,-77],[54,-58],[29,-90],[22,-29],[-9,-53],[51,-65],[-36,-44],[12,-48],[56,-11],[29,14],[76,-47],[39,16],[119,-9],[49,-35],[45,-13]],[[55200,57422],[22,-36],[67,-51],[55,-21],[52,12],[63,68],[33,-2],[21,-68],[85,-66],[35,41],[58,9],[23,45],[60,48],[46,-39],[51,31],[38,-6],[27,32],[42,-12],[40,-47],[-23,-22],[41,-42],[-37,-41],[-48,-5],[32,-103],[-1,-44],[-49,-22],[-74,-80],[-31,-15],[1,-41],[-25,-25],[44,-72],[61,-5],[63,33],[59,-53],[-3,-40],[25,-63],[-20,-57],[68,-40],[67,-73],[-1,-42],[38,-17],[38,-66],[45,-14],[52,-71],[56,1],[51,-98],[72,0],[82,32],[31,-23],[86,20],[10,-73],[-55,-46],[18,-56],[-16,-60],[60,-28],[64,-50],[87,-2],[99,22],[50,-43],[-3,-74],[74,-66],[83,-17],[69,-45],[43,-3],[30,-55],[53,6],[127,-177],[79,-64],[46,51],[61,42],[80,36],[28,-46],[42,-28],[39,-64],[118,-36],[25,-21],[23,-69],[-17,-67],[26,-53],[96,-48],[22,-98],[16,-115],[-73,-39],[-14,-87],[-69,-59],[-23,-115],[-33,-56],[-22,-128],[-21,-62],[-44,-19],[-113,-101],[-24,48],[-70,15],[-31,-23],[57,-52],[55,-15],[17,-25],[70,-34],[88,-62],[53,-16],[57,-116],[85,-53],[-7,-69],[-42,-64],[13,-42],[-8,-77],[-122,-50],[-106,-72],[-6,-39],[35,-84],[3,-92],[15,-63],[-24,-42],[44,-21],[36,-55],[-9,-67],[26,-27],[42,12],[79,-6],[92,40],[59,-1],[82,-63],[80,-26],[84,-1],[50,37],[31,-4],[58,49],[77,12],[84,106],[79,43],[67,-3],[66,35],[27,-26],[54,-13],[40,-29],[146,-2],[56,31],[109,77],[13,-35],[93,-80],[85,11],[48,-12],[89,-52],[74,-3],[88,-19],[28,30],[79,14],[71,58],[99,7],[77,-52],[105,42],[75,-8],[82,72],[71,36],[79,10],[25,-26],[43,5],[70,57],[40,18],[33,-22],[9,-102],[93,-42],[23,-26],[-33,-29],[-19,-65],[-47,-65],[85,-70],[122,-51],[18,-67],[74,-33],[26,5],[-1,-79],[75,-49],[19,-25],[64,-37],[32,-59],[8,-110],[87,-76],[91,-38],[101,-25],[-2,-119],[78,-33],[12,-19],[-39,-85],[17,-55],[-24,-42],[13,-35],[-55,-67],[-1,-56],[24,-36],[-16,-115],[20,-35]],[[44922,32882],[92,-6],[10,47],[-21,44],[49,77],[45,-43],[-5,-23],[73,-42],[28,35],[-29,87],[73,-13],[19,18],[58,0],[27,-22],[78,-25],[62,3],[22,-49],[-24,-29],[31,-66],[48,-34],[32,-53],[12,-62],[42,-49],[68,-7],[52,30],[13,71],[80,62],[66,-38],[75,-9],[30,18],[31,-73],[-2,-59],[-20,-45],[49,-66],[67,-43],[85,-4],[15,-20],[120,10],[63,-143],[-29,-57],[42,3],[23,-45],[85,-83],[-1,-52],[-44,-11],[-42,-42],[-24,-49],[-41,-5],[-41,-30],[21,-82],[-67,-74],[-45,-100],[-114,-13],[-104,84],[-49,27],[-25,43],[-82,44],[-165,-8],[-84,-71],[1,-50],[-72,-6],[-75,-51],[-39,-52],[-52,-111],[-54,-29],[-60,0],[-115,-68],[-38,-11],[-75,94],[46,13],[-65,88],[-44,20],[-56,50],[-16,173],[-64,-6],[-41,12],[-182,-22],[-36,31],[-7,38],[-35,23],[-97,-24],[-94,-4],[-94,-16],[-63,-2],[2,80],[46,26],[28,52],[28,16],[-15,63],[10,97],[-26,42],[-60,0],[-23,34],[2,67],[20,91],[-101,20],[-11,51],[4,98],[48,36],[64,8],[88,-40],[35,62],[60,39],[82,-12],[6,-91],[78,7],[25,67],[88,66],[146,16],[22,43],[53,14]],[[55200,57422],[26,49],[39,34],[6,226],[56,14],[13,41],[-50,46],[37,47],[1,42],[25,32],[28,118],[35,18],[103,-16],[54,-22],[80,46],[-12,52],[86,61],[44,88],[77,18],[3,84],[46,94],[65,-20],[69,4],[63,-22],[46,81],[132,25],[-42,87],[-61,11],[53,74],[84,-2],[63,76],[50,-9],[82,-37],[98,-62],[76,-17],[110,-72],[90,-136],[40,-144],[74,-8],[93,31],[47,59],[45,18],[7,57],[-62,28],[-18,57],[24,60],[-43,34],[27,51],[-39,18],[7,32],[-60,26],[50,56],[-85,47],[30,23],[-7,67],[-48,22],[-29,73],[40,30],[-9,62],[70,10],[-88,53],[-63,117],[-62,26],[-137,153],[-80,64],[-40,16],[-45,42],[-93,26],[-60,2],[-98,41],[-56,86],[-75,31],[-66,-31],[-65,4],[-158,56],[-79,-3],[-126,22],[-35,16],[-155,110],[-58,27],[-40,120],[-54,65],[-132,53]],[[55164,60280],[-7,162],[34,50],[86,83],[64,84],[67,72],[78,152],[33,124],[33,76],[48,61],[42,30],[27,68],[33,14],[-13,57],[59,45],[11,53],[50,119],[3,52],[69,124],[55,76],[8,47],[69,53],[71,72],[36,87],[47,13],[59,-6]],[[62260,65674],[64,1],[103,20],[51,27],[21,37],[75,42],[90,3],[28,51],[94,-5],[17,-54],[105,-4],[160,8],[191,26],[109,29],[26,17],[215,59],[49,21],[82,56],[122,29],[57,32],[124,43],[46,55],[258,80],[190,136],[93,59],[32,79],[96,51],[31,45],[91,91],[-78,58],[-52,61],[-17,63],[-1,103],[18,21],[135,-21],[-19,27],[-117,19],[15,51],[38,30],[144,22],[57,48],[-23,57],[24,16],[89,121],[30,71],[63,45],[14,40],[63,79],[33,69],[57,16],[66,44],[28,50],[-24,48],[20,75],[83,117],[9,80],[42,87],[10,94],[59,69],[56,37],[80,3],[26,-41],[53,0],[112,23],[129,78],[42,47],[20,75],[62,54],[-29,64],[29,40],[48,19],[142,89],[42,11],[34,43],[65,41],[109,41],[117,53],[49,7],[10,31],[-21,99],[39,33],[44,-3],[5,-103],[111,-29],[43,14],[17,36],[121,-20],[49,27],[41,52],[37,-12],[31,51],[-4,40],[-45,23],[75,104],[38,4],[45,-42],[1,-58],[99,-52],[100,-18],[64,29],[143,-21],[68,31],[36,-16],[32,82],[42,28],[156,5],[42,-5],[157,-117],[42,-18],[76,-3],[132,-49],[97,-73],[54,-80],[119,-40],[36,-2],[70,-36],[172,-157],[87,-111],[15,-8],[40,-86],[43,-199],[-21,-215],[41,-60],[94,-89],[42,-29],[118,-15],[43,16],[30,-33],[-13,-67],[-39,-48],[77,-153],[49,-59],[139,-121],[68,-28],[103,-70],[44,4],[58,34],[42,-43],[28,0],[70,74],[53,37],[34,-79],[39,72],[95,43],[45,58],[12,38],[79,58],[1,-57],[-86,-82],[-65,-44],[-41,-85],[73,-21],[-106,-125],[-49,-30],[-30,-64],[0,-51],[35,-77],[77,-95],[64,-24],[60,3],[9,22],[90,-56],[11,-33],[86,-34],[36,7]],[[72798,66051],[55,-9],[37,-44],[60,-9],[32,17],[117,1],[101,44],[74,-2],[-73,-46],[-39,15],[-47,-88],[-5,-58],[23,-86],[40,-34],[81,30],[45,3],[41,43],[-29,46],[83,8],[32,20],[247,-27],[53,3],[158,-55],[121,-16],[30,-24],[71,-3],[53,57],[86,4],[46,-49],[89,14],[117,-26],[13,-31],[44,-22],[50,9],[138,-14],[101,66],[68,-25],[59,39],[99,33],[26,43],[78,13],[73,40],[25,-37],[-39,-60],[4,-35],[-90,-88],[-29,-43],[-94,-57],[0,-20],[64,-24],[107,35],[32,-36],[-5,-112],[-16,-50],[-47,-32],[-47,-100],[24,-57],[-43,-32],[-34,-56],[-20,-103],[10,-47],[42,-31],[-15,-49],[3,-67],[64,-14],[64,-47],[40,-52],[36,-74],[102,-52],[19,-44],[-18,-43],[-96,-10],[-7,-53],[109,3],[-3,-54],[-44,-69],[19,-20],[-31,-40],[17,-72],[-22,-39],[4,-47],[35,-48],[47,-106],[66,-71],[110,-98],[48,-25],[39,-43],[81,-24],[62,48],[68,10],[30,-19],[156,12],[133,69],[52,-11],[59,18],[153,-67],[61,-13],[51,-43],[-7,-129],[31,-31],[56,49],[81,102],[89,-118],[39,26],[52,-91],[-13,-22],[-26,-138],[-177,-21],[-8,-35],[-107,-48],[-73,-47],[-28,-42],[-54,-38],[-123,-5],[-17,-71],[-100,-63],[-37,20],[-60,-52]],[[57084,28558],[32,25],[40,68],[10,44],[76,-2],[96,51],[64,24],[49,33],[9,59],[24,50],[-15,122],[28,48],[2,52],[-78,50],[-70,6],[-44,24],[-54,83],[-87,16],[-29,59],[-84,15],[-43,46],[-45,120],[-5,47],[-44,47],[-36,-5],[-11,-40],[-47,-36],[-111,-10],[-43,51],[-3,69],[-138,87],[-41,12],[-78,-8],[-80,18],[-80,30],[-7,145],[28,99],[68,22],[20,43],[61,80],[88,89],[144,39],[14,53],[-78,46],[-55,62],[43,58],[48,32],[52,6],[20,-26],[118,27],[89,97],[64,-26],[65,52],[53,19],[-33,48],[14,83],[-6,54],[-44,33],[58,38],[32,78],[-3,55],[-138,45],[1,42],[-28,46],[-89,31],[-52,0],[-24,45],[45,45]],[[72197,49304],[-12,-91],[-35,-87],[-41,-55],[-252,-232],[-95,-107],[-42,-60],[-60,-133],[-18,-118],[-37,-179],[-26,-57],[-104,-81],[-56,-67],[-101,-86],[-39,-49],[-112,-39],[-36,6],[-68,-19],[-43,-31],[-60,-75],[-69,-119],[-43,-96],[-26,-36],[-79,-53],[-111,-47],[-81,-66],[-51,-21],[-75,-71],[-139,-66],[-95,-33],[-49,-48],[-60,-112],[-92,-72],[-22,-35],[-37,-119],[-40,-102],[-23,-107],[-2,-177],[11,-78],[27,-86],[88,-163],[34,-113],[-23,-37],[1,-89],[-26,-86],[-21,-17],[-1,-62],[-201,-287],[-149,-116],[-187,-105],[-69,-45],[-101,-93],[-101,-148],[-33,-78],[-27,-34],[-50,-113],[-29,-116],[-16,-162],[6,-117],[21,-116],[46,-150],[35,-95],[85,-175],[74,-129],[125,-154],[50,-45],[115,-69],[55,-116],[29,-108],[-13,-46],[-56,-68],[-8,-46],[-63,-62],[-42,157],[-21,-21],[12,-63],[-47,11],[22,-165],[-41,-97],[-47,-65],[-59,-40],[-27,15],[-90,-46],[-32,-35],[37,-36],[-27,-37],[-54,34],[-39,-43],[-125,-189],[-67,-91],[-52,-151],[8,-89],[26,-70],[35,-51],[43,-223],[-40,-87],[-26,-160],[-31,-52],[-28,-98],[-2,-58],[-19,-57],[-2,-108],[19,-70],[-9,-115],[-23,-169],[-29,-112],[-17,-104],[-63,-309],[-95,-297],[-41,-104],[-34,-60],[-51,-168],[-46,-18],[-31,-159],[-48,-94],[-90,-94],[-34,-102],[-37,-79],[-22,-119],[-3,-98],[-33,-233],[6,-237],[-4,-67],[11,-65],[42,-47],[-78,-229],[-39,-54],[-4,-48],[-39,-85],[-33,-39],[-2,-37],[-46,-54],[-19,-84],[-45,-36],[-27,-55],[-67,-12],[-23,-29],[-41,-92],[-26,-123],[11,-190],[23,-68],[55,-17],[-18,-93],[-39,-17],[-7,-79],[-30,-30],[4,-42],[-35,-92],[-20,-92],[9,-81],[-57,-93],[19,-50],[-40,-49],[-31,-87],[44,-67],[-15,-57],[-53,-17],[-61,-41],[-47,-104],[-35,-216],[-29,-53],[-31,-169],[3,-153],[-12,-63],[10,-32],[-10,-81],[8,-60],[-4,-164],[-11,-57],[-62,-231],[1,-102],[-28,-58],[-52,-66],[-3,-63],[-78,-80],[-66,-110],[-37,-81],[-35,-35],[-34,-157],[-67,-227],[30,-57],[-66,-54],[-2,-109],[-30,-58],[-2,-38],[19,-98],[17,-34],[-23,-94],[35,-127],[-2,-153],[27,-59],[110,-12],[54,-40],[-32,-34],[-14,-69],[28,-14],[-73,-50],[-28,-39],[7,-52],[-20,-65],[-44,-27],[-65,-111],[-23,-115],[-52,-94],[-3,-65],[-26,-67],[-8,-146],[-15,-53],[-13,-108]],[[44829,11834],[-13,-9],[-115,13],[-60,-30],[-42,2],[-105,26],[-156,69],[-55,6],[-68,76],[-434,281],[-222,178],[-44,12],[-104,110],[-68,58],[-118,85],[-45,12],[-64,-56],[-97,81],[66,69],[-63,88],[-109,-67],[-66,76],[72,60],[2,37],[-37,8],[-102,103],[-48,38],[-37,2],[-86,102],[42,42],[2,44],[-43,41],[-48,22],[-58,63],[-51,-2],[-61,73],[-10,66],[-113,143],[-14,7],[-113,146],[-86,96],[-43,29],[-27,58],[-101,111],[-79,131],[-119,146],[-70,78],[-31,16],[-40,53],[-125,76],[-27,51],[173,77],[3,46],[-49,108],[-34,48],[-65,48],[-24,72],[-49,69],[-20,49],[-8,72],[-25,35],[16,43],[-8,76],[12,58],[48,118],[62,67],[48,4],[93,91],[21,81],[-17,239],[42,3],[31,-103],[6,-63],[18,-20],[127,79],[-68,83],[47,34],[-1,105],[-42,3],[-3,123],[67,-1],[7,103],[-33,23],[-95,37],[-35,-38],[-29,-69],[-74,-73],[-76,212],[-35,139],[-30,54],[-47,117],[-36,29],[-104,208],[-39,120],[-58,104],[-40,56],[-38,98],[-52,89],[-11,56],[-100,222],[-45,82],[-77,159],[-24,73],[-73,165],[-83,165],[-36,46],[-177,-25],[-20,120],[9,13],[96,18],[14,21],[7,87],[-32,42],[1,34],[-76,214],[-89,207],[-48,133],[-30,1],[-15,58],[17,22],[-23,45],[-12,106],[-23,61],[-13,93],[-111,273],[-40,78],[-102,242],[-75,198],[11,18],[-24,65]],[[49482,27077],[-80,78],[26,194],[-33,53],[4,24],[-29,65],[25,45],[-14,39],[-129,157],[-1,87],[-28,111],[-46,51],[11,31],[46,21],[-14,45],[53,49],[-22,29],[4,46],[33,37],[-11,88],[-29,41],[36,32],[-33,62],[32,73],[70,27],[36,-74],[40,-43],[66,-6],[26,14],[53,79],[32,-23],[108,-31],[43,18],[29,-44],[61,-40],[43,22],[47,-16],[6,-36],[48,6],[117,-37],[56,-8],[58,-27],[75,-16],[120,-1],[37,28],[42,87],[-23,78],[28,131],[61,88],[56,30],[64,51],[78,-21],[88,15],[93,-32],[105,-24],[-8,111],[53,65],[73,36],[52,11],[28,79],[48,22],[110,12],[57,81],[46,45],[-21,44],[90,52],[44,72],[-35,42],[28,63],[-19,37],[43,15],[119,-47],[69,38],[93,-38],[67,33],[82,-26],[58,5],[20,46],[57,26],[20,46],[-6,73],[17,26],[58,10],[6,78],[70,-14],[41,68],[63,19],[2,48],[79,80],[-26,57],[39,18],[57,-52],[37,23],[69,-2],[66,41],[90,-19],[154,96],[21,134],[-8,34],[28,58],[85,22],[-17,28],[32,26],[25,71],[73,21],[-44,70],[84,81],[33,48],[10,70],[97,89],[3,164],[101,60],[41,-23],[55,63],[15,-26],[46,16],[46,-13],[36,45],[74,15],[39,57],[32,0],[43,40],[117,25],[52,69],[26,-25],[46,34],[80,156],[85,44],[13,80],[86,37],[38,40],[70,-16],[52,67],[31,23],[127,22],[108,4],[96,-33],[98,-9],[72,27],[-3,57],[44,53],[76,-14],[162,21],[165,72],[22,38]],[[41142,39675],[68,16],[62,105],[206,253],[32,28],[16,91],[20,30],[55,-80],[41,72],[66,21],[42,-9],[48,-33],[30,0],[81,71],[125,86],[26,27],[35,126],[76,92],[41,61],[38,129],[160,240],[28,77],[111,204],[13,52],[116,225],[23,23],[-271,43],[-27,55],[75,116],[264,394],[51,17],[-15,58],[19,62],[125,332],[43,26],[242,6],[46,-30],[54,35],[-27,24],[-3,51],[46,164],[184,374],[79,87],[120,156],[13,73],[45,78],[70,30],[123,68],[27,7],[284,136],[72,53],[37,-19],[44,12],[71,61],[-38,17],[-64,-2],[-85,16],[-410,-9],[-9,378],[44,18],[69,62],[113,10],[139,48],[26,49],[460,8],[137,-37],[59,52],[74,51],[-39,42],[47,21],[-1,28],[-43,32],[76,311],[-12,21],[42,146],[5,54],[-384,-1],[-86,-330],[-29,-39],[-75,2],[-103,-10],[-181,70],[-153,-173],[-99,-21],[113,159],[123,157],[147,195],[68,81],[53,20],[150,103],[118,101],[15,27],[366,408],[51,22],[102,-3],[168,7],[102,-9],[72,35],[81,92],[-4,17],[-93,41],[143,186],[36,12],[82,101],[33,21],[43,60],[61,131],[45,62],[37,25]],[[38624,29435],[34,-8],[42,37],[-29,40],[-41,2],[19,65],[29,38],[44,121],[51,93],[82,104],[133,113],[60,89],[107,-33],[97,21],[52,26],[67,-2],[27,23],[-177,9],[-8,11],[35,107],[-101,6],[-17,39],[87,4],[42,45],[60,25],[67,-69],[15,-98],[35,-2],[-7,70],[36,51],[24,64],[61,88],[-38,29],[-2,71],[-15,33],[-21,133],[-119,-38],[-6,-104],[-40,-11],[-50,153],[-2,142],[-21,41],[61,65],[-35,31],[-1,61],[43,22],[81,67],[-40,25],[-34,-35],[-54,-24],[-9,39],[-68,24],[6,95],[81,175],[98,121],[-74,25],[33,101],[-29,35],[-30,-28],[-198,-74],[-23,41],[-69,-32],[21,-53],[-21,-16],[-43,79],[22,50],[94,81],[113,35],[48,111],[-42,39],[-15,62],[21,40],[78,54],[7,64],[44,58],[87,68],[17,71],[-29,72],[76,14],[176,-21],[18,29],[-199,29],[-17,30],[-373,-104],[-120,-36],[-126,-5],[-54,16],[-86,87],[-21,51],[-10,399],[11,44],[42,47],[51,19],[64,-5],[309,-56],[69,21],[0,48]],[[39104,30896],[79,-211],[23,-93],[23,-26],[-9,-57],[-115,315],[-1,72]],[[3068,51627],[-119,-56],[-33,-6],[-136,-83],[-89,-103],[-27,-20],[-22,-53],[-76,-78],[-76,-142],[-44,-150],[-71,-121],[-58,-30],[-40,12],[-58,-34],[-59,-2],[-27,43],[-109,49],[-80,2],[-16,35],[-45,25],[-9,28],[-78,34],[-76,2],[-35,20],[-34,49],[-85,41],[-34,70],[-54,14],[-62,61],[-63,33],[-35,70],[76,31],[99,-14],[37,30],[30,-39],[69,-23],[115,59],[49,90],[3,38],[-28,29],[81,62],[76,-11],[47,43],[-45,96],[5,139],[-19,77],[-40,101],[-81,112],[-9,90],[32,56],[-52,33],[-83,24],[-87,59],[-85,38],[-11,27],[44,39],[2,30],[42,72],[64,65],[68,4],[57,66],[85,76],[97,-4],[-6,46],[31,11],[58,-11],[61,-35],[72,-57],[118,-113],[122,-86],[90,-73],[164,-101],[132,-51],[53,14],[69,-15],[57,-27],[173,-40],[95,5],[82,86],[48,27],[33,-27],[57,41],[39,106],[1,51],[-25,56],[-57,71],[-8,35],[109,8],[-2,44],[38,18],[120,86],[4,27],[-34,100],[-37,14],[45,49],[3,108],[-34,72],[18,25],[59,20],[74,-2],[59,28],[57,61],[111,26],[20,57],[-101,161],[51,34],[25,-65],[44,-32],[53,46],[64,26],[134,-47],[16,-76],[36,-38],[14,-79],[59,-121],[29,-34],[51,21],[75,-13],[42,-26],[57,38],[46,-37],[41,16],[5,-84],[-10,-53],[30,-116],[38,-7],[64,-115],[49,-146],[40,-57],[41,-5],[53,41],[79,-11],[-2,-42],[-46,-51],[-65,-25],[-7,-54],[15,-88],[10,-138],[22,-76],[60,-111],[58,-28],[49,22],[13,-78],[-44,-52],[43,-94],[-77,-32],[-54,35],[-50,-22],[-54,-89],[30,-82],[63,-67],[-61,-37],[-17,-33],[-40,-16],[-37,26],[-44,-12],[-41,-85],[11,-60],[-62,-70],[-53,11],[-59,-31],[-52,-54],[-122,-13],[8,-24],[-81,-33],[-14,100],[23,49],[-45,92],[-87,120],[-109,6],[-123,33],[-50,3],[-107,59],[-30,34],[-67,43],[-69,17],[-91,6],[-10,21],[-148,-30],[-92,-4],[-272,-79],[-105,-47]],[[1011,51564],[-23,-63],[-46,5],[-6,45],[-63,13],[-87,-16],[-59,-30],[-51,-43],[-24,-55],[44,-41],[-35,-44],[-82,-50],[-9,46],[-51,17],[-86,-16],[-76,-46],[-118,-141],[-33,24],[-27,58],[-111,20],[-47,-9],[-21,52],[38,10],[35,45],[49,13],[7,55],[-11,46],[-46,102],[44,34],[93,10],[68,61],[30,181],[-3,86],[13,61],[45,43],[94,24],[53,2],[42,-15],[59,2],[4,55],[53,28],[102,-10],[36,-39],[197,-136],[84,-17],[-13,-37],[-3,-110],[-59,-47],[27,-73],[-21,-45],[-6,-55]],[[54046,57883],[94,106],[7,71],[58,44],[24,0],[91,107],[56,52],[49,83],[48,52],[-36,67],[-22,88],[-43,-3],[-38,30],[-2,67],[-24,71],[29,57],[-8,193],[25,76],[2,50],[31,86],[57,46],[39,78],[45,134],[26,121],[98,116],[139,227],[104,142],[10,51],[-51,32],[16,37],[83,-50],[44,110],[-36,47],[93,-7],[45,-29],[17,-113],[35,-28],[40,37],[-4,52],[-30,41],[27,22],[-20,34]]],"transform":{"scale":[0.00004930990370415755,0.000049038348313782575],"translate":[118.21353152598424,21.89671606253262]},"objects":{"tw.geo":{"type":"GeometryCollection","geometries":[{"arcs":[[[0]],[[1]],[[2]],[[3,4,5,6]],[[7]],[[8]]],"type":"MultiPolygon","properties":{"COUNTYSN":"10014001","COUNTYNAME":"台東縣","name":"台東縣"}},{"arcs":[[[9]],[[10,11,12,13,14,15]]],"type":"MultiPolygon","properties":{"COUNTYSN":"10002001","COUNTYNAME":"宜蘭縣","name":"宜蘭縣"}},{"arcs":[[16]],"type":"Polygon","properties":{"COUNTYSN":"63000001","COUNTYNAME":"台北市","name":"台北市"}},{"arcs":[[[17]],[[18]],[[19]],[[20]],[[21]],[[22]],[[23]],[[24,25,26,27]]],"type":"MultiPolygon","properties":{"COUNTYSN":"10009001","COUNTYNAME":"雲林縣","name":"雲林縣"}},{"arcs":[[28,-14,29,30]],"type":"Polygon","properties":{"COUNTYSN":"10003001","COUNTYNAME":"桃園縣","name":"桃園縣"}},{"arcs":[[[31,-5,32]],[[33]]],"type":"MultiPolygon","properties":{"COUNTYSN":"10013001","COUNTYNAME":"屏東縣","name":"屏東縣"}},{"arcs":[[[34,35,-12,36,37,38,39]],[[40]]],"type":"MultiPolygon","properties":{"COUNTYSN":"10006001","COUNTYNAME":"台中市","name":"台中市"}},{"arcs":[[41,42,43]],"type":"Polygon","properties":{"COUNTYSN":"10011001","COUNTYNAME":"台南市","name":"台南市"}},{"arcs":[[[44]],[[45,46]]],"type":"MultiPolygon","properties":{"COUNTYSN":"10017001","COUNTYNAME":"基隆市","name":"基隆市"}},{"arcs":[[[47,48,49]],[[50]],[[51]],[[52]],[[55]],[[56]],[[57]],[[58]],[[59]],[[60]],[[61]]],"type":"MultiPolygon","properties":{"COUNTYSN":"09007001","COUNTYNAME":"連江縣","name":"連江縣"}},{"arcs":[[62,63,64,-28,65,-38]],"type":"Polygon","properties":{"COUNTYSN":"10008001","COUNTYNAME":"南投縣","name":"南投縣"}},{"arcs":[[[66]],[[67]],[[68]],[[69]],[[70]],[[71]],[[72]],[[73]],[[74]],[[75]],[[76]],[[77]],[[78]],[[79]],[[80]],[[81]],[[82]],[[83]],[[84]],[[85]],[[86]],[[87]],[[88]],[[89]],[[90]],[[91]],[[92]],[[93]],[[94]]],"type":"MultiPolygon","properties":{"COUNTYSN":"10016001","COUNTYNAME":"澎湖縣","name":"澎湖縣"}},{"arcs":[[-35,95,96,97]],"type":"Polygon","properties":{"COUNTYSN":"10005001","COUNTYNAME":"苗栗縣","name":"苗栗縣"}},{"arcs":[[98]],"type":"Polygon","properties":{"COUNTYSN":"10020001","COUNTYNAME":"嘉義市","name":"嘉義市"}},{"arcs":[[-30,-13,-36,-98,99,100]],"type":"Polygon","properties":{"COUNTYSN":"10004001","COUNTYNAME":"新竹縣","name":"新竹縣"}},{"arcs":[[-29,101,-46,102,-15],[-17]],"type":"Polygon","properties":{"COUNTYSN":"10001001","COUNTYNAME":"新北市","name":"新北市"}},{"arcs":[[103,-63,-37,-11,104,-7]],"type":"Polygon","properties":{"COUNTYSN":"10015001","COUNTYNAME":"花蓮縣","name":"花蓮縣"}},{"arcs":[[105,-42,106,-64,-104,-6,-32]],"type":"Polygon","properties":{"COUNTYSN":"10012001","COUNTYNAME":"高雄市","name":"高雄市"}},{"arcs":[[-27,107,-39,-66]],"type":"Polygon","properties":{"COUNTYSN":"10007001","COUNTYNAME":"彰化縣","name":"彰化縣"}},{"arcs":[[[-44,108,-25,-65,-107],[-99]],[[109]]],"type":"MultiPolygon","properties":{"COUNTYSN":"10010001","COUNTYNAME":"嘉義縣","name":"嘉義縣"}},{"arcs":[[[110]],[[111]]],"type":"MultiPolygon","properties":{"COUNTYSN":"09020001","COUNTYNAME":"金門縣","name":"金門縣"}},{"arcs":[[-100,-97,112]],"type":"Polygon","properties":{"COUNTYSN":"10018001","COUNTYNAME":"新竹市","name":"新竹市"}}]}}}